{"type":"FeatureCollection","name":"eh_shoreline","properties":{"source":"Town of East Hampton GIS \u2014 Shoreline (EHPublicMapLayers/MapServer/17)","query_bbox":"[-72.02,41.02,-71.85,41.09] WGS84","note":"Simplified from the official query (~2.3 MB, ~dense vertices) with ~3 m Douglas-Peucker for web overlay. Not a survey shoreline.","original_vertices":57117,"simplified_vertices":1038},"features":[{"type":"Feature","properties":{"OBJECTID":196},"geometry":{"type":"LineString","coordinates":[[-71.89213,41.045774],[-71.892837,41.04538],[-71.893173,41.045337],[-71.894223,41.04539],[-71.894662,41.045244],[-71.895402,41.04483],[-71.896667,41.043894],[-71.897735,41.043275],[-71.898357,41.043081],[-71.8989,41.043104],[-71.899337,41.043057],[-71.900219,41.042701],[-71.901465,41.041966],[-71.901834,41.041556],[-71.902039,41.041128],[-71.902275,41.040922],[-71.903225,41.040506],[-71.903847,41.040323],[-71.904612,41.040218],[-71.905517,41.040278],[-71.906092,41.040417],[-71.906302,41.040408],[-71.907523,41.04014],[-71.908838,41.039581],[-71.910078,41.039373],[-71.911779,41.039456],[-71.912685,41.039352],[-71.914032,41.039303],[-71.914113,41.039367],[-71.914133,41.039487],[-71.914205,41.039575],[-71.914493,41.039631],[-71.916968,41.039342],[-71.918136,41.039107],[-71.919418,41.038687],[-71.919929,41.038569],[-71.921546,41.037874],[-71.922243,41.037639],[-71.92356,41.037262],[-71.924106,41.037166],[-71.924949,41.036897],[-71.926235,41.036352],[-71.927405,41.036055],[-71.9283,41.035924],[-71.92945,41.035567],[-71.930948,41.035196],[-71.932698,41.034901],[-71.933756,41.034672],[-71.936354,41.03391],[-71.936979,41.033635],[-71.938146,41.033409],[-71.938821,41.033157],[-71.94096,41.032707],[-71.941585,41.032432],[-71.942094,41.032379],[-71.944126,41.031745],[-71.944472,41.03171],[-71.945132,41.031452],[-71.945715,41.031345],[-71.946441,41.031052],[-71.947622,41.030666],[-71.948532,41.030265],[-71.950699,41.029634],[-71.952714,41.028955],[-71.956117,41.027916],[-71.963746,41.025058],[-71.968434,41.023497],[-71.969609,41.022983],[-71.971039,41.022464],[-71.97246,41.021761],[-71.973421,41.021343],[-71.975228,41.020625],[-71.978599,41.019417],[-71.980877,41.018431],[-71.98381,41.017274],[-71.987145,41.016122],[-71.988352,41.015757],[-71.991048,41.014641],[-71.993009,41.013975],[-71.993524,41.013748],[-71.994431,41.013452],[-71.994843,41.013255],[-71.995759,41.012953],[-71.996311,41.012662],[-71.99675,41.012514],[-71.997559,41.012142],[-71.998311,41.011887],[-71.999474,41.011376],[-72.00093,41.010929],[-72.001774,41.010567],[-72.002432,41.010389],[-72.004228,41.009721],[-72.005039,41.009285],[-72.005624,41.009089],[-72.00582,41.008963],[-72.006579,41.008672],[-72.007068,41.008407],[-72.009553,41.007402],[-72.012366,41.006483],[-72.012846,41.006364],[-72.013507,41.006075],[-72.015997,41.005216],[-72.016988,41.004794],[-72.017285,41.004595],[-72.018202,41.004181],[-72.020148,41.003463],[-72.020879,41.003134],[-72.022598,41.002603],[-72.023184,41.002376],[-72.023658,41.002273],[-72.024246,41.002007],[-72.025195,41.001788],[-72.025673,41.001548],[-72.026221,41.001403],[-72.026659,41.001155],[-72.026922,41.001108]]}},{"type":"Feature","properties":{"OBJECTID":198},"geometry":{"type":"LineString","coordinates":[[-71.909518,41.049978],[-71.908468,41.050791],[-71.908393,41.050939],[-71.907885,41.051424],[-71.907784,41.051642],[-71.907752,41.052108],[-71.90814,41.052146],[-71.908331,41.05223],[-71.908292,41.052284],[-71.908473,41.052309],[-71.908523,41.052369],[-71.908506,41.052429],[-71.908327,41.05233],[-71.908147,41.052308],[-71.907927,41.052386],[-71.907814,41.052521],[-71.907724,41.052767],[-71.907752,41.052987],[-71.907668,41.053232],[-71.90774,41.053316],[-71.907643,41.053397],[-71.907709,41.053591],[-71.907509,41.054053],[-71.907542,41.054136],[-71.907494,41.054327],[-71.907558,41.054631],[-71.90736,41.055011],[-71.907432,41.0552],[-71.907212,41.055497],[-71.907211,41.055638],[-71.907299,41.055779],[-71.907134,41.056353],[-71.907211,41.056576],[-71.907161,41.05682],[-71.9073,41.057207],[-71.907122,41.057643],[-71.907128,41.058933],[-71.907333,41.059458],[-71.907509,41.05974],[-71.907431,41.059895],[-71.907227,41.060043],[-71.907007,41.060111],[-71.906991,41.060203],[-71.907546,41.060249],[-71.907884,41.060622],[-71.908048,41.060734],[-71.908462,41.060722],[-71.908997,41.061009],[-71.909453,41.061018],[-71.909611,41.061064],[-71.90972,41.061201],[-71.910157,41.061422],[-71.910359,41.061503],[-71.910566,41.061502],[-71.910959,41.061647],[-71.911535,41.062164],[-71.911789,41.062185],[-71.911936,41.062125],[-71.91198,41.06226],[-71.912097,41.062301],[-71.912109,41.062395],[-71.912428,41.062625],[-71.9129,41.062633],[-71.913146,41.062841],[-71.913514,41.062947],[-71.91368,41.063162],[-71.913818,41.063227],[-71.914051,41.063451],[-71.914066,41.063671],[-71.914211,41.063893],[-71.914315,41.064213],[-71.914454,41.064309],[-71.914523,41.064448],[-71.914502,41.064561],[-71.91461,41.06459],[-71.914644,41.064813],[-71.914888,41.065113],[-71.914931,41.065361],[-71.915089,41.065721],[-71.915083,41.065858],[-71.915218,41.06597],[-71.915259,41.066214],[-71.915116,41.066709],[-71.91514,41.066862],[-71.915203,41.066931],[-71.915146,41.067122],[-71.915189,41.067397],[-71.915351,41.067717],[-71.915575,41.067916],[-71.915671,41.068367],[-71.915943,41.068776],[-71.916394,41.069202],[-71.917172,41.069713],[-71.917421,41.069936],[-71.917923,41.070247],[-71.917946,41.070302],[-71.918737,41.070676],[-71.91956,41.070939],[-71.919637,41.070906],[-71.919804,41.070967],[-71.91974,41.070988],[-71.919761,41.071021],[-71.91958,41.071058],[-71.919525,41.071126],[-71.919591,41.071266],[-71.919889,41.071292],[-71.919842,41.071626],[-71.919905,41.071695],[-71.920088,41.071643],[-71.920124,41.071678],[-71.920055,41.07152],[-71.920135,41.071494],[-71.920133,41.071438],[-71.919932,41.071381],[-71.919974,41.071299],[-71.91992,41.071233],[-71.919664,41.071213],[-71.919634,41.071096],[-71.919777,41.071158],[-71.919841,41.071125],[-71.92014,41.071153],[-71.920895,41.07129],[-71.923324,41.07141],[-71.924009,41.071547],[-71.92448,41.071565],[-71.92576,41.071732],[-71.926872,41.07226],[-71.926831,41.072383],[-71.926873,41.072419],[-71.927361,41.072577],[-71.927347,41.072683],[-71.927592,41.072732],[-71.927862,41.072859],[-71.928054,41.073064],[-71.928337,41.073261],[-71.929024,41.073593],[-71.929818,41.073742],[-71.929973,41.073894],[-71.930246,41.073969],[-71.930862,41.073972],[-71.93152,41.073832],[-71.931707,41.073866],[-71.932088,41.074124],[-71.932727,41.074273],[-71.9329,41.07448],[-71.933162,41.074684],[-71.933809,41.074882],[-71.933919,41.074846],[-71.934063,41.074928],[-71.933966,41.075009],[-71.933985,41.075043],[-71.934629,41.075355],[-71.935046,41.075424],[-71.935122,41.075469],[-71.935123,41.07553],[-71.93538,41.075674],[-71.935425,41.075672],[-71.935548,41.075449],[-71.935787,41.075444],[-71.935757,41.075261],[-71.935866,41.075229],[-71.93617,41.075295],[-71.93626,41.075385],[-71.936276,41.075476],[-71.936044,41.075897],[-71.936026,41.076199],[-71.936322,41.076561],[-71.936443,41.076517],[-71.936486,41.076558],[-71.937295,41.079327],[-71.937312,41.079531],[-71.937198,41.079503],[-71.936996,41.078687],[-71.936891,41.078431],[-71.936024,41.078295],[-71.934828,41.078272],[-71.933737,41.078366],[-71.932643,41.078534],[-71.927239,41.079633],[-71.925639,41.07976],[-71.923679,41.079779],[-71.921353,41.079894],[-71.919388,41.080083],[-71.918368,41.080233],[-71.916722,41.080546],[-71.915518,41.080858],[-71.914455,41.081187],[-71.912842,41.081797],[-71.911182,41.0826],[-71.907419,41.084566],[-71.906503,41.084829],[-71.905951,41.085089],[-71.904671,41.085415],[-71.903937,41.085677],[-71.902376,41.085685],[-71.901821,41.085354],[-71.90164,41.085053],[-71.901577,41.084584],[-71.901231,41.08326],[-71.900919,41.082486],[-71.900538,41.081861],[-71.899724,41.080734],[-71.898906,41.080022],[-71.898177,41.079141],[-71.89738,41.078276],[-71.896573,41.077608],[-71.893955,41.0761],[-71.893129,41.075755],[-71.892393,41.075563],[-71.891054,41.075477],[-71.890223,41.075341],[-71.888518,41.075346],[-71.887323,41.075296],[-71.885641,41.075688],[-71.884221,41.075858],[-71.883773,41.076047],[-71.883048,41.076235],[-71.882402,41.076533],[-71.881396,41.07684],[-71.88091,41.076924],[-71.879431,41.077019],[-71.878604,41.076779],[-71.877318,41.076173],[-71.876887,41.07604],[-71.875745,41.07592],[-71.875192,41.075702],[-71.874868,41.075625],[-71.872881,41.075355],[-71.872272,41.07514],[-71.871408,41.074929],[-71.870322,41.074831],[-71.869871,41.074863],[-71.869557,41.074957],[-71.869077,41.075177],[-71.868569,41.075562],[-71.868189,41.075744],[-71.866765,41.076026],[-71.865927,41.076144],[-71.863434,41.075802],[-71.861418,41.07507],[-71.860766,41.074709],[-71.860433,41.074222],[-71.860109,41.073941],[-71.859758,41.07377],[-71.859275,41.073693],[-71.858503,41.073472],[-71.857967,41.073219],[-71.857537,41.072829],[-71.857411,41.072656],[-71.857189,41.072103],[-71.85703,41.072015],[-71.856606,41.07157],[-71.856468,41.071563],[-71.856348,41.071488],[-71.856206,41.071206],[-71.856198,41.070986],[-71.8563,41.070737],[-71.856725,41.070371],[-71.85734,41.070174],[-71.858046,41.069732],[-71.858489,41.069407],[-71.858753,41.06911],[-71.859559,41.067642],[-71.859862,41.066701],[-71.860111,41.066195],[-71.860448,41.065704],[-71.861092,41.064982],[-71.862214,41.064067],[-71.862922,41.063566],[-71.863651,41.063184],[-71.864635,41.062879],[-71.865174,41.062532],[-71.865836,41.061965],[-71.866073,41.061675],[-71.866179,41.061452],[-71.866167,41.06115],[-71.866233,41.061069],[-71.866195,41.060958],[-71.86624,41.060987],[-71.866322,41.060823],[-71.866463,41.060332],[-71.866524,41.060305],[-71.866985,41.059614],[-71.8675,41.059038],[-71.867969,41.058712],[-71.868819,41.058314],[-71.869625,41.058151],[-71.870133,41.057901],[-71.870988,41.057176],[-71.872221,41.055953],[-71.872605,41.05571],[-71.872953,41.055372],[-71.873128,41.055101],[-71.873315,41.054638],[-71.873427,41.053871],[-71.873384,41.053623],[-71.873604,41.053028],[-71.87367,41.052695],[-71.873901,41.052307],[-71.874396,41.051885],[-71.876099,41.051016],[-71.877764,41.050519],[-71.879523,41.049853],[-71.880417,41.049601],[-71.882023,41.049264],[-71.883185,41.049212],[-71.883625,41.049059],[-71.884583,41.04861],[-71.886628,41.048147],[-71.887069,41.047963],[-71.888108,41.04739],[-71.888675,41.047221],[-71.889491,41.047066],[-71.890005,41.046873],[-71.891407,41.046129],[-71.891737,41.046017],[-71.89213,41.045774]]}},{"type":"Feature","properties":{"OBJECTID":199},"geometry":{"type":"LineString","coordinates":[[-72.055946,41.018511],[-72.055774,41.018771],[-72.055643,41.019109],[-72.055221,41.019679],[-72.055154,41.019852],[-72.055182,41.020063],[-72.055275,41.020219],[-72.055268,41.020346],[-72.055437,41.02066],[-72.055566,41.021016],[-72.055561,41.021192],[-72.055641,41.021342],[-72.055561,41.021525],[-72.055574,41.021709],[-72.055655,41.021802],[-72.055689,41.021938],[-72.05553,41.022115],[-72.055361,41.022178],[-72.054927,41.022207],[-72.052695,41.022089],[-72.050829,41.022266],[-72.050526,41.022365],[-72.049783,41.022956],[-72.049428,41.023088],[-72.048451,41.023012],[-72.047966,41.022918],[-72.047339,41.022621],[-72.046728,41.022429],[-72.046085,41.022132],[-72.044615,41.021586],[-72.043321,41.021185],[-72.041775,41.02078],[-72.03972,41.020378],[-72.038205,41.020148],[-72.036723,41.020007],[-72.03542,41.01995],[-72.029579,41.020107],[-72.027757,41.020253],[-72.025701,41.020506],[-72.02306,41.021123],[-72.022365,41.021337],[-72.020935,41.021879],[-72.019532,41.022499],[-72.018867,41.022815],[-72.018073,41.023303],[-72.017507,41.023801],[-72.01723,41.024214],[-72.017045,41.024348],[-72.01621,41.024755],[-72.015424,41.02529],[-72.01506,41.025723],[-72.01454,41.026802],[-72.013836,41.027648],[-72.013271,41.028739],[-72.013052,41.028982],[-72.012218,41.029681],[-72.010898,41.030373],[-72.01,41.031013],[-72.00867,41.031979],[-72.007686,41.032843],[-72.007355,41.033215],[-72.006584,41.033851],[-72.006026,41.03455],[-72.005424,41.035038],[-72.004992,41.035781],[-72.004519,41.036211],[-72.004285,41.036711],[-72.004024,41.037065],[-72.002395,41.037994],[-72.001843,41.038381],[-72.001332,41.038636],[-72.000991,41.03898],[-72.000577,41.039277],[-71.99971,41.039658],[-71.998711,41.040211],[-71.998114,41.040591],[-71.997409,41.041121],[-71.99726,41.041266],[-71.99687,41.041846],[-71.995286,41.043555],[-71.995065,41.043963],[-71.994919,41.044702],[-71.994572,41.045465],[-71.993898,41.04643],[-71.99345,41.046946],[-71.992964,41.047404],[-71.992498,41.047641],[-71.991789,41.047878],[-71.990671,41.048092],[-71.989544,41.048095],[-71.988923,41.048345],[-71.988156,41.048523],[-71.987137,41.048638],[-71.986629,41.048634],[-71.98616,41.048551],[-71.985762,41.048546],[-71.985365,41.048464],[-71.984569,41.048406],[-71.982979,41.048362],[-71.982313,41.048253],[-71.982148,41.048138],[-71.980965,41.047687],[-71.9808,41.047669],[-71.980785,41.047586],[-71.981002,41.047315],[-71.981038,41.047167],[-71.981027,41.047069],[-71.980952,41.046983],[-71.980976,41.046656],[-71.980782,41.046241],[-71.980843,41.045967],[-71.980823,41.04583],[-71.98043,41.045191],[-71.980358,41.044888],[-71.980265,41.044722],[-71.979447,41.043952],[-71.978588,41.043583],[-71.978446,41.043482],[-71.977715,41.043195],[-71.97719,41.043052],[-71.977169,41.042883],[-71.976983,41.042769],[-71.975447,41.042296],[-71.974723,41.041912],[-71.97347,41.041418],[-71.972755,41.041263],[-71.972428,41.041076],[-71.971849,41.04102],[-71.971787,41.04089],[-71.971536,41.040808],[-71.970369,41.040819],[-71.970227,41.040721],[-71.969756,41.040721],[-71.967821,41.041123],[-71.96665,41.04147],[-71.96522,41.041985],[-71.964234,41.042414],[-71.963047,41.043018],[-71.961017,41.044231],[-71.960337,41.044748],[-71.959346,41.045648],[-71.95905,41.046032],[-71.958792,41.046698],[-71.957383,41.048603],[-71.957112,41.049229],[-71.956985,41.049886],[-71.956992,41.050136],[-71.957158,41.050443],[-71.957632,41.050932],[-71.957828,41.051246],[-71.957961,41.051338],[-71.958079,41.051325],[-71.958099,41.051361],[-71.958007,41.051551],[-71.958053,41.051662],[-71.957988,41.051823],[-71.957956,41.052182],[-71.957999,41.052402],[-71.95817,41.052689],[-71.958128,41.053146],[-71.95828,41.05345],[-71.958287,41.05356],[-71.958252,41.053718],[-71.958024,41.054157],[-71.957965,41.054461],[-71.957996,41.055146],[-71.958073,41.055561],[-71.958323,41.056142],[-71.958432,41.056583],[-71.958777,41.05722],[-71.958999,41.058075],[-71.959416,41.058769],[-71.959613,41.05998],[-71.959729,41.060449],[-71.959998,41.061168],[-71.96034,41.06175],[-71.961129,41.062785],[-71.961538,41.063556],[-71.961619,41.063832],[-71.96159,41.064236],[-71.961447,41.064542],[-71.960839,41.065365],[-71.96054,41.065872],[-71.960159,41.067262],[-71.959624,41.068289],[-71.959611,41.068717],[-71.959825,41.069346],[-71.960072,41.069789],[-71.960147,41.070038],[-71.96013,41.070302],[-71.960011,41.070517],[-71.959425,41.071149],[-71.959195,41.071331],[-71.958761,41.071606],[-71.958057,41.07184],[-71.957622,41.072044],[-71.957362,41.072269],[-71.957103,41.072596],[-71.956677,41.072793],[-71.956146,41.072866],[-71.955396,41.072801],[-71.954224,41.072829],[-71.954153,41.072786],[-71.952337,41.072861],[-71.950742,41.072827],[-71.949249,41.072994],[-71.949139,41.073029],[-71.949125,41.073128],[-71.94768,41.0733],[-71.946875,41.073507],[-71.946848,41.0736],[-71.946246,41.073855],[-71.945582,41.074283],[-71.945067,41.074511],[-71.944593,41.074592],[-71.943781,41.074878],[-71.943626,41.075036],[-71.942464,41.075383],[-71.942356,41.075361],[-71.94148,41.075518],[-71.940779,41.075889],[-71.940237,41.075999],[-71.93938,41.076286],[-71.93891,41.076513],[-71.938425,41.076843],[-71.93891,41.07859],[-71.939035,41.078902],[-71.939013,41.079029],[-71.938903,41.078968],[-71.93819,41.076315],[-71.93809,41.076204],[-71.938169,41.076094],[-71.938157,41.07599],[-71.937944,41.075827],[-71.937923,41.075761],[-71.937767,41.075687],[-71.937475,41.075209],[-71.937486,41.075114],[-71.937631,41.075074],[-71.93767,41.074965],[-71.937538,41.074771],[-71.937563,41.07468],[-71.937503,41.074633],[-71.937502,41.074523],[-71.938177,41.073904],[-71.938477,41.073442],[-71.938407,41.073386],[-71.938536,41.073372],[-71.938559,41.073295],[-71.938611,41.073287],[-71.93893,41.073511],[-71.939116,41.07338],[-71.939402,41.073529],[-71.939833,41.073192],[-71.939855,41.073133],[-71.939653,41.073024],[-71.939722,41.072924],[-71.940012,41.072676],[-71.940072,41.072555],[-71.940351,41.07257],[-71.940418,41.072379],[-71.940365,41.072309],[-71.940664,41.071999],[-71.940645,41.071885],[-71.940693,41.071807],[-71.940617,41.071787],[-71.940585,41.071642],[-71.940489,41.071576],[-71.940369,41.07157],[-71.939671,41.071858],[-71.939782,41.07223],[-71.939547,41.072355],[-71.939399,41.072309],[-71.939312,41.072029],[-71.939072,41.071606],[-71.938843,41.071671],[-71.938792,41.071647],[-71.938653,41.071084],[-71.938695,41.07102],[-71.938566,41.070891],[-71.938581,41.070756],[-71.938506,41.070754],[-71.938441,41.070641],[-71.938451,41.070559],[-71.938518,41.070563],[-71.938556,41.070479],[-71.93848,41.070313],[-71.93852,41.070231],[-71.938463,41.070142],[-71.938137,41.069922],[-71.938061,41.069729],[-71.938112,41.069499],[-71.938493,41.069395],[-71.938734,41.069219],[-71.938679,41.069081],[-71.938738,41.068999],[-71.93869,41.068889],[-71.938696,41.068724],[-71.938777,41.068632],[-71.938912,41.068591],[-71.938824,41.068433],[-71.938774,41.068094],[-71.938594,41.067991],[-71.93835,41.06797],[-71.938294,41.067921],[-71.938515,41.067777],[-71.939046,41.067636],[-71.939164,41.067525],[-71.939044,41.067518],[-71.938985,41.067329],[-71.938755,41.067068],[-71.938675,41.067117],[-71.938394,41.067119],[-71.938291,41.067206],[-71.937593,41.067522],[-71.937143,41.067366],[-71.937096,41.06732],[-71.937127,41.067211],[-71.93724,41.067212],[-71.937554,41.067029],[-71.937363,41.066773],[-71.937172,41.066825],[-71.936369,41.067223],[-71.936157,41.067055],[-71.935746,41.067155],[-71.935373,41.067337],[-71.934969,41.067642],[-71.934833,41.067626],[-71.934678,41.067692],[-71.934776,41.067831],[-71.934964,41.067971],[-71.935105,41.068208],[-71.935351,41.068464],[-71.935439,41.068666],[-71.935366,41.068939],[-71.93507,41.069348],[-71.935036,41.069647],[-71.935091,41.069827],[-71.935372,41.070129],[-71.935943,41.070424],[-71.936154,41.070601],[-71.935218,41.070818],[-71.935609,41.071759],[-71.935681,41.071843],[-71.935872,41.071824],[-71.935919,41.071887],[-71.935875,41.071996],[-71.935636,41.072141],[-71.934905,41.07287],[-71.934567,41.073108],[-71.9343,41.073088],[-71.933868,41.073298],[-71.933391,41.073025],[-71.93317,41.072756],[-71.932986,41.072271],[-71.932758,41.071885],[-71.932713,41.071691],[-71.93251,41.071301],[-71.932437,41.071248],[-71.932447,41.071138],[-71.932293,41.070948],[-71.932374,41.070868],[-71.932213,41.070872],[-71.932167,41.070831],[-71.932208,41.07075],[-71.932116,41.070364],[-71.93207,41.070335],[-71.932045,41.07006],[-71.931837,41.069563],[-71.931899,41.069277],[-71.932203,41.068938],[-71.932304,41.068754],[-71.932374,41.068528],[-71.932389,41.0682],[-71.932324,41.067979],[-71.932175,41.067784],[-71.932003,41.067648],[-71.931652,41.067495],[-71.931339,41.06722],[-71.931267,41.066917],[-71.931387,41.066509],[-71.931476,41.066354],[-71.931641,41.066204],[-71.931979,41.066108],[-71.932233,41.066092],[-71.932411,41.066201],[-71.932919,41.066187],[-71.933052,41.066243],[-71.933193,41.066383],[-71.933298,41.066734],[-71.933466,41.066929],[-71.933978,41.067128],[-71.934259,41.067303],[-71.934444,41.067319],[-71.934896,41.067212],[-71.9354,41.066965],[-71.935776,41.066644],[-71.935986,41.066342],[-71.935822,41.06612],[-71.935822,41.065986],[-71.935689,41.065769],[-71.93562,41.065328],[-71.935469,41.064874],[-71.93521,41.064489],[-71.935181,41.064351],[-71.934995,41.064156],[-71.934977,41.064049],[-71.934834,41.063933],[-71.934763,41.063767],[-71.934011,41.062656],[-71.933992,41.062518],[-71.933804,41.062268],[-71.933795,41.062139],[-71.933648,41.062018],[-71.933651,41.061798],[-71.933827,41.061668],[-71.933785,41.061503],[-71.933432,41.061163],[-71.933445,41.061084],[-71.93338,41.06097],[-71.933127,41.060798],[-71.933083,41.060745],[-71.933112,41.060718],[-71.932947,41.060626],[-71.932923,41.060516],[-71.932747,41.060267],[-71.932536,41.060159],[-71.932458,41.059938],[-71.932239,41.059824],[-71.932054,41.059615],[-71.931756,41.059615],[-71.931217,41.058932],[-71.9314,41.058793],[-71.931373,41.05871],[-71.931442,41.058608],[-71.931405,41.058528],[-71.931235,41.058433],[-71.931064,41.058216],[-71.930919,41.0582],[-71.93084,41.058158],[-71.930826,41.058096],[-71.930655,41.058077],[-71.930569,41.058005],[-71.930506,41.057899],[-71.930557,41.05768],[-71.930519,41.057487],[-71.930399,41.057452],[-71.930324,41.05737],[-71.930288,41.057516],[-71.930155,41.057686],[-71.929955,41.057836],[-71.929762,41.058102],[-71.929653,41.058095],[-71.929568,41.058057],[-71.929571,41.057992],[-71.929452,41.057899],[-71.92837,41.05739],[-71.927844,41.05721],[-71.927686,41.05723],[-71.927576,41.057187],[-71.927521,41.057076],[-71.927667,41.056887],[-71.927624,41.056564],[-71.927708,41.056343],[-71.92757,41.056275],[-71.927767,41.056156],[-71.927798,41.055964],[-71.927911,41.055875],[-71.927986,41.055732],[-71.92812,41.055733],[-71.928214,41.055667],[-71.928253,41.05553],[-71.928159,41.055212],[-71.928072,41.05511],[-71.9281,41.054945],[-71.928028,41.054744],[-71.927735,41.054582],[-71.927553,41.054359],[-71.927519,41.054244],[-71.927566,41.054031],[-71.927496,41.053919],[-71.927328,41.053806],[-71.927264,41.053475],[-71.927068,41.053225],[-71.927086,41.053115],[-71.927019,41.052867],[-71.927152,41.052828],[-71.927134,41.052786],[-71.927267,41.052624],[-71.927431,41.052627],[-71.927546,41.052353],[-71.927469,41.052197],[-71.927323,41.052148],[-71.927126,41.052237],[-71.926972,41.052225],[-71.926866,41.052131],[-71.926784,41.052122],[-71.926797,41.052012],[-71.926648,41.052145],[-71.926573,41.052145],[-71.926511,41.051977],[-71.926397,41.051899],[-71.926429,41.051786],[-71.926342,41.051674],[-71.926274,41.051426],[-71.926018,41.051397],[-71.925709,41.051279],[-71.925702,41.051066],[-71.925625,41.051226],[-71.925042,41.051291],[-71.924931,41.051377],[-71.924427,41.051453],[-71.924236,41.051557],[-71.924058,41.051473],[-71.923724,41.051569],[-71.923398,41.051896],[-71.923498,41.0522],[-71.923456,41.052419],[-71.923569,41.05264],[-71.923407,41.052967],[-71.923467,41.053078],[-71.92349,41.053325],[-71.923718,41.053549],[-71.923894,41.05392],[-71.923948,41.053938],[-71.923943,41.054019],[-71.924096,41.054179],[-71.924123,41.054352],[-71.924503,41.054771],[-71.924461,41.054807],[-71.923952,41.054833],[-71.923769,41.054703],[-71.92339,41.054276],[-71.923099,41.053491],[-71.923117,41.053346],[-71.92326,41.053282],[-71.92333,41.053197],[-71.923354,41.052991],[-71.9234,41.052943],[-71.923119,41.052441],[-71.922859,41.052254],[-71.922586,41.052133],[-71.922326,41.052129],[-71.922343,41.052069],[-71.92216,41.051873],[-71.92197,41.051788],[-71.921728,41.051749],[-71.921246,41.051782],[-71.921086,41.051737],[-71.92076,41.051397],[-71.920616,41.051348],[-71.920507,41.051378],[-71.920364,41.051347],[-71.920148,41.051179],[-71.920123,41.051096],[-71.919885,41.050968],[-71.919338,41.0508],[-71.919187,41.05068],[-71.918987,41.050678],[-71.918501,41.050353],[-71.918003,41.050247],[-71.917997,41.050179],[-71.91758,41.049868],[-71.9174,41.049827],[-71.917256,41.049701],[-71.917007,41.049633],[-71.916859,41.049527],[-71.916803,41.049471],[-71.916797,41.049334],[-71.916668,41.04916],[-71.916371,41.049116],[-71.915971,41.049154],[-71.915896,41.049219],[-71.915787,41.04922],[-71.915467,41.049036],[-71.915322,41.04902],[-71.915137,41.049156],[-71.915157,41.04903],[-71.915278,41.04895],[-71.915252,41.048867],[-71.915076,41.048862],[-71.914649,41.048633],[-71.914437,41.048605],[-71.914441,41.048475],[-71.914381,41.048344],[-71.914215,41.048223],[-71.913746,41.048208],[-71.913377,41.048024],[-71.912998,41.047957],[-71.912213,41.048193],[-71.912271,41.048021],[-71.912251,41.048085],[-71.91203,41.048205],[-71.91177,41.048463],[-71.911565,41.048553],[-71.911478,41.048717],[-71.911449,41.048908],[-71.910777,41.049193],[-71.91045,41.04942],[-71.910405,41.049411],[-71.910431,41.049439],[-71.910358,41.049438],[-71.909861,41.049691],[-71.909831,41.049757],[-71.909518,41.049978]]}}]}