{"type":"FeatureCollection","features":[{"type":"Feature","id":29461,"geometry":{"type":"Polygon","coordinates":[[[-71.931865300000027,41.073073899999997],[-71.931803000000002,41.073165300000028],[-71.931805800000006,41.073166399999991],[-71.933809100000019,41.073948099999996],[-71.935989899999981,41.074799100000007],[-71.936787900000013,41.075435900000002],[-71.936989600000004,41.075596899999994],[-71.936990700000024,41.075600800000018],[-71.93736130000002,41.076903399999992],[-71.937542199999996,41.077539399999978],[-71.937632599999972,41.077857199999983],[-71.937704699999983,41.07811079999999],[-71.937800999999979,41.078449200000023],[-71.937855500000012,41.078641000000005],[-71.938023900000019,41.079232999999988],[-71.938028099999997,41.079247699999996],[-71.938032899999996,41.079264599999988],[-71.938051799999982,41.07933109999999],[-71.938117299999988,41.079561300000023],[-71.938135100000011,41.079624000000024],[-71.938150300000018,41.079677300000014],[-71.938174100000026,41.079761000000019],[-71.938307099999975,41.079739300000028],[-71.938330800000017,41.079735500000027],[-71.93844009999998,41.079717700000003],[-71.938456599999995,41.079715000000022],[-71.938573000000019,41.079696000000013],[-71.938706000000025,41.079674399999988],[-71.938539900000023,41.079090500000007],[-71.938534300000015,41.079070899999977],[-71.938485899999989,41.078900599999997],[-71.938453400000014,41.078786400000013],[-71.938441599999976,41.078744900000004],[-71.938424199999986,41.078683599999977],[-71.937965700000007,41.077071699999976],[-71.937822100000005,41.076566899999989],[-71.937628200000006,41.075885400000004],[-71.937605599999983,41.075805899999978],[-71.937571800000001,41.075687300000027],[-71.937497800000017,41.075426999999991],[-71.937489900000003,41.075399300000015],[-71.937489400000004,41.075397399999986],[-71.937405399999989,41.075330399999984],[-71.936888199999999,41.074917700000015],[-71.936899600000004,41.074591800000007],[-71.936901299999988,41.074544100000026],[-71.936901499999976,41.074537799999973],[-71.936901700000021,41.074533599999995],[-71.936902599999996,41.074506499999984],[-71.936914600000023,41.0741668],[-71.936954700000001,41.074120100000016],[-71.938283000000013,41.072576000000026],[-71.938299700000016,41.072556700000007],[-71.938294600000006,41.072554200000013],[-71.937995699999988,41.072406899999976],[-71.93782520000002,41.072322999999983],[-71.937691799999982,41.072257200000024],[-71.937623799999983,41.072223699999995],[-71.93738780000001,41.072107500000016],[-71.937083900000005,41.071957699999984],[-71.936038900000028,41.073172499999998],[-71.935698800000011,41.073567799999978],[-71.934951800000022,41.073748500000022],[-71.934842000000003,41.073775000000012],[-71.934663199999989,41.073818200000005],[-71.934656500000017,41.073815599999989],[-71.933816999999976,41.073487999999998],[-71.933473800000002,41.073354100000017],[-71.932980699999973,41.073161700000014],[-71.932980400000019,41.073161599999992],[-71.932319699999994,41.072903699999983],[-71.932122300000003,41.072826700000007],[-71.932052300000009,41.072799400000008],[-71.932037999999977,41.072820400000012],[-71.931989999999985,41.072890900000004],[-71.931930599999987,41.072977999999978],[-71.931927599999995,41.072982400000001],[-71.931916999999999,41.072997999999984],[-71.931865300000027,41.073073899999997]]]},"properties":{"OBJECTID":29461,"OBJL":51,"DRVAL1":null,"OBJNAM":"Lake Montauk Harbor Channel","ORIENT":null,"QUASOU":null,"SOUACC":null,"TRAFIC":4,"VERDAT":null,"INFORM":null,"SCAMIN":29999,"SORDAT":"20210408","SORIND":"US,US,graph,DD-34522","DSNM":"US5NY2GL.000","SHAPE.AREA":8.8631925149999993e-06,"SHAPE.LEN":0.026522716461156601}}]}