{"type": "FeatureCollection", "crs": {"type": "name", "properties": {"name": "EPSG:4269"}}, "features": [{"type": "Feature", "properties": {"FEATURE_ID": "1246341.0000000000000000000000000", "FEATURE": "20.000000000000000000000000000000", "SOURCE_ID": "T06097A", "DATA_SOURC": "A", "SRC_DATE": "19340601", "HOR_ACC": "0", "INFORM": "\u0000\u0000\u0000\u0000\u0000\u0000\u0000\u0000\u0000\u0000\u0000\u0000\u0000\u0000\u0000\u0000\u0000\u0000\u0000\u0000\u0000\u0000\u0000\u0000\u0000\u0000\u0000\u0000\u0000\u0000\u0000\u0000\u0000\u0000\u0000\u0000\u0000\u0000\u0000\u0000\u0000\u0000\u0000\u0000\u0000\u0000\u0000\u0000\u0000\u0000\u0000\u0000\u0000\u0000\u0000\u0000\u0000\u0000\u0000\u0000\u0000\u0000\u0000\u0000\u0000\u0000\u0000\u0000\u0000\u0000\u0000\u0000\u0000\u0000\u0000\u0000\u0000\u0000\u0000\u0000\u0000\u0000\u0000\u0000\u0000\u0000\u0000\u0000\u0000\u0000\u0000\u0000\u0000\u0000\u0000\u0000\u0000\u0000\u0000\u0000\u0000\u0000\u0000\u0000\u0000\u0000\u0000\u0000\u0000\u0000\u0000\u0000\u0000\u0000\u0000\u0000\u0000\u0000\u0000\u0000\u0000\u0000\u0000\u0000\u0000\u0000\u0000\u0000\u0000\u0000\u0000\u0000\u0000\u0000\u0000\u0000\u0000\u0000\u0000\u0000\u0000\u0000\u0000\u0000\u0000\u0000\u0000\u0000\u0000\u0000\u0000\u0000\u0000\u0000\u0000\u0000\u0000\u0000\u0000\u0000\u0000\u0000\u0000\u0000\u0000\u0000\u0000\u0000\u0000\u0000\u0000\u0000\u0000\u0000\u0000\u0000\u0000\u0000\u0000\u0000\u0000\u0000\u0000\u0000\u0000\u0000\u0000\u0000\u0000\u0000\u0000\u0000\u0000\u0000\u0000\u0000\u0000\u0000\u0000\u0000\u0000\u0000\u0000\u0000\u0000\u0000\u0000\u0000\u0000\u0000\u0000\u0000\u0000\u0000\u0000\u0000\u0000\u0000\u0000\u0000\u0000\u0000\u0000\u0000\u0000\u0000\u0000\u0000\u0000\u0000\u0000\u0000\u0000\u0000\u0000\u0000\u0000\u0000\u0000\u0000\u0000\u0000\u0000\u0000\u0000\u0000\u0000\u0000\u0000\u0000\u0000\u0000\u0000\u0000", "RESOLUTION": "0.0000000000000000000000000000000", "ATTRIBUTE": "Natural.Mean High Water", "CLASS": "SHORELINE", "F_CODE": "*********************************", "EX_METH": "S", "EXTRACT_TE": "A"}, "geometry": {"type": "LineString", "coordinates": [[-72.0985158, 41.0405641], [-72.0984962, 41.0406565], [-72.0984826, 41.040749], [-72.0984744, 41.0407918], [-72.0984543, 41.0408199], [-72.0984249, 41.0408501], [-72.0983695, 41.0408868], [-72.0983411, 41.0408908], [-72.0982761, 41.0408654], [-72.098216, 41.0408019], [-72.0981435, 41.0407263], [-72.0981205, 41.0406804], [-72.0981267, 41.0406114], [-72.098131, 41.0405138], [-72.098141, 41.0403567]]}}, {"type": "Feature", "properties": {"FEATURE_ID": "1246343.0000000000000000000000000", "FEATURE": "20.000000000000000000000000000000", "SOURCE_ID": "T06097A", "DATA_SOURC": "A", "SRC_DATE": "19340601", "HOR_ACC": "0", "INFORM": "\u0000\u0000\u0000\u0000\u0000\u0000\u0000\u0000\u0000\u0000\u0000\u0000\u0000\u0000\u0000\u0000\u0000\u0000\u0000\u0000\u0000\u0000\u0000\u0000\u0000\u0000\u0000\u0000\u0000\u0000\u0000\u0000\u0000\u0000\u0000\u0000\u0000\u0000\u0000\u0000\u0000\u0000\u0000\u0000\u0000\u0000\u0000\u0000\u0000\u0000\u0000\u0000\u0000\u0000\u0000\u0000\u0000\u0000\u0000\u0000\u0000\u0000\u0000\u0000\u0000\u0000\u0000\u0000\u0000\u0000\u0000\u0000\u0000\u0000\u0000\u0000\u0000\u0000\u0000\u0000\u0000\u0000\u0000\u0000\u0000\u0000\u0000\u0000\u0000\u0000\u0000\u0000\u0000\u0000\u0000\u0000\u0000\u0000\u0000\u0000\u0000\u0000\u0000\u0000\u0000\u0000\u0000\u0000\u0000\u0000\u0000\u0000\u0000\u0000\u0000\u0000\u0000\u0000\u0000\u0000\u0000\u0000\u0000\u0000\u0000\u0000\u0000\u0000\u0000\u0000\u0000\u0000\u0000\u0000\u0000\u0000\u0000\u0000\u0000\u0000\u0000\u0000\u0000\u0000\u0000\u0000\u0000\u0000\u0000\u0000\u0000\u0000\u0000\u0000\u0000\u0000\u0000\u0000\u0000\u0000\u0000\u0000\u0000\u0000\u0000\u0000\u0000\u0000\u0000\u0000\u0000\u0000\u0000\u0000\u0000\u0000\u0000\u0000\u0000\u0000\u0000\u0000\u0000\u0000\u0000\u0000\u0000\u0000\u0000\u0000\u0000\u0000\u0000\u0000\u0000\u0000\u0000\u0000\u0000\u0000\u0000\u0000\u0000\u0000\u0000\u0000\u0000\u0000\u0000\u0000\u0000\u0000\u0000\u0000\u0000\u0000\u0000\u0000\u0000\u0000\u0000\u0000\u0000\u0000\u0000\u0000\u0000\u0000\u0000\u0000\u0000\u0000\u0000\u0000\u0000\u0000\u0000\u0000\u0000\u0000\u0000\u0000\u0000\u0000\u0000\u0000\u0000\u0000\u0000\u0000\u0000\u0000\u0000\u0000", "RESOLUTION": "0.0000000000000000000000000000000", "ATTRIBUTE": "Natural.Mean High Water", "CLASS": "SHORELINE", "F_CODE": "*********************************", "EX_METH": "S", "EXTRACT_TE": "A"}, "geometry": {"type": "LineString", "coordinates": [[-72.0981973, 41.0400771], [-72.098204, 41.0400009], [-72.0981881, 41.0399315], [-72.0981581, 41.0398258], [-72.0981174, 41.0397485], [-72.0980803, 41.0396618], [-72.0980524, 41.0395825], [-72.0980138, 41.0395315], [-72.0979913, 41.0394666], [-72.0979725, 41.0393922], [-72.0979438, 41.0393367], [-72.0979399, 41.0392793], [-72.0979446, 41.0391723], [-72.0979704, 41.0390847], [-72.0980232, 41.0389574], [-72.0980584, 41.0388702], [-72.0981062, 41.0387855], [-72.0981704, 41.0386847], [-72.0982297, 41.0385552], [-72.0982876, 41.0384539], [-72.0983131, 41.0383737], [-72.0983443, 41.0383125], [-72.0984007, 41.0382425], [-72.0984687, 41.0381275], [-72.0985241, 41.0380169], [-72.0985722, 41.0379251], [-72.0986116, 41.0378832], [-72.0986482, 41.0378411], [-72.0986652, 41.0378131000001], [-72.0986959, 41.0377566], [-72.0987759, 41.0376562], [-72.0988173, 41.0375762], [-72.098882, 41.037461], [-72.0989102, 41.037395], [-72.0989286, 41.0373311], [-72.0989624, 41.0372796], [-72.098993, 41.037228], [-72.0990367, 41.0371648], [-72.0990483, 41.0371125], [-72.0990699, 41.0370511], [-72.0991058, 41.0369519], [-72.0991304, 41.0368239], [-72.0991373, 41.0366668], [-72.0991276, 41.0365998], [-72.0991203, 41.0364805], [-72.0991026, 41.0363061], [-72.0990807, 41.0361626], [-72.0990728, 41.0359884], [-72.0990478, 41.0357574]]}}, {"type": "Feature", "properties": {"FEATURE_ID": "1246345.0000000000000000000000000", "FEATURE": "20.000000000000000000000000000000", "SOURCE_ID": "T06097A", "DATA_SOURC": "A", "SRC_DATE": "19340601", "HOR_ACC": "0", "INFORM": "\u0000\u0000\u0000\u0000\u0000\u0000\u0000\u0000\u0000\u0000\u0000\u0000\u0000\u0000\u0000\u0000\u0000\u0000\u0000\u0000\u0000\u0000\u0000\u0000\u0000\u0000\u0000\u0000\u0000\u0000\u0000\u0000\u0000\u0000\u0000\u0000\u0000\u0000\u0000\u0000\u0000\u0000\u0000\u0000\u0000\u0000\u0000\u0000\u0000\u0000\u0000\u0000\u0000\u0000\u0000\u0000\u0000\u0000\u0000\u0000\u0000\u0000\u0000\u0000\u0000\u0000\u0000\u0000\u0000\u0000\u0000\u0000\u0000\u0000\u0000\u0000\u0000\u0000\u0000\u0000\u0000\u0000\u0000\u0000\u0000\u0000\u0000\u0000\u0000\u0000\u0000\u0000\u0000\u0000\u0000\u0000\u0000\u0000\u0000\u0000\u0000\u0000\u0000\u0000\u0000\u0000\u0000\u0000\u0000\u0000\u0000\u0000\u0000\u0000\u0000\u0000\u0000\u0000\u0000\u0000\u0000\u0000\u0000\u0000\u0000\u0000\u0000\u0000\u0000\u0000\u0000\u0000\u0000\u0000\u0000\u0000\u0000\u0000\u0000\u0000\u0000\u0000\u0000\u0000\u0000\u0000\u0000\u0000\u0000\u0000\u0000\u0000\u0000\u0000\u0000\u0000\u0000\u0000\u0000\u0000\u0000\u0000\u0000\u0000\u0000\u0000\u0000\u0000\u0000\u0000\u0000\u0000\u0000\u0000\u0000\u0000\u0000\u0000\u0000\u0000\u0000\u0000\u0000\u0000\u0000\u0000\u0000\u0000\u0000\u0000\u0000\u0000\u0000\u0000\u0000\u0000\u0000\u0000\u0000\u0000\u0000\u0000\u0000\u0000\u0000\u0000\u0000\u0000\u0000\u0000\u0000\u0000\u0000\u0000\u0000\u0000\u0000\u0000\u0000\u0000\u0000\u0000\u0000\u0000\u0000\u0000\u0000\u0000\u0000\u0000\u0000\u0000\u0000\u0000\u0000\u0000\u0000\u0000\u0000\u0000\u0000\u0000\u0000\u0000\u0000\u0000\u0000\u0000\u0000\u0000\u0000\u0000\u0000\u0000", "RESOLUTION": "0.0000000000000000000000000000000", "ATTRIBUTE": "Natural.Mean High Water", "CLASS": "SHORELINE", "F_CODE": "*********************************", "EX_METH": "S", "EXTRACT_TE": "A"}, "geometry": {"type": "LineString", "coordinates": [[-72.0989804, 41.0353232000001], [-72.0989559, 41.0351002], [-72.0989273, 41.0348898], [-72.098913, 41.0347106], [-72.0988907, 41.034579], [-72.0988812, 41.0344358], [-72.0988636, 41.0342639], [-72.0988461, 41.0340894], [-72.0988269, 41.0339507], [-72.0988139, 41.0338193], [-72.0988199, 41.0336836], [-72.0988344, 41.0335672], [-72.0988539, 41.0334057], [-72.0988825, 41.033261], [-72.0989183, 41.0330903], [-72.0989591, 41.0329556], [-72.0989886999999, 41.0328491], [-72.0990256, 41.0327237], [-72.0990582, 41.032629], [-72.0990848, 41.0325251], [-72.0990915, 41.0324441], [-72.0990962, 41.0323371], [-72.0991046, 41.0322157], [-72.0991019, 41.0320632], [-72.0990864, 41.0319865], [-72.0990799, 41.0319173], [-72.0990796, 41.0318529], [-72.0990511, 41.0317879], [-72.0990225, 41.0317203], [-72.0990004, 41.0316507], [-72.0989803, 41.0315358], [-72.0989638, 41.0314114], [-72.0989453, 41.031256], [-72.0989285, 41.0311365], [-72.0989355, 41.0310533], [-72.0989623, 41.0310134], [-72.0989596, 41.03093], [-72.0989657, 41.0307895], [-72.0989876, 41.0306519], [-72.0989906, 41.0305828], [-72.0990012, 41.030483], [-72.0990271, 41.0304003], [-72.099063, 41.0302963], [-72.0991303, 41.0301979], [-72.0991621, 41.0301179000001], [-72.0992022, 41.0300687], [-72.0992493, 41.029996], [-72.0993163, 41.0299023], [-72.0993832, 41.0298136], [-72.0994641, 41.0296916], [-72.0995155, 41.0295952], [-72.0995512, 41.0294961], [-72.0995971, 41.0293827], [-72.0996525, 41.0292721], [-72.0996956, 41.0291494], [-72.0997732, 41.0290298], [-72.0998692, 41.0289202], [-72.0999559, 41.0288104], [-72.09999, 41.0287516], [-72.1000247, 41.0286763], [-72.1001109, 41.0285759], [-72.100228, 41.0284121], [-72.1003012, 41.0283305], [-72.1003904, 41.0282327], [-72.1004545, 41.0281319], [-72.1005175, 41.0280595], [-72.1005904, 41.0279756], [-72.1006698, 41.027887], [-72.1007398, 41.0277982], [-72.1008348, 41.0277125], [-72.1009301, 41.0276219], [-72.1010507, 41.0275249], [-72.1011162, 41.0274669], [-72.1011799, 41.0273781], [-72.1012422, 41.0273224], [-72.1013406, 41.0272295], [-72.1014565, 41.0271014], [-72.1015718, 41.0269827], [-72.1016739, 41.0268756], [-72.1017655, 41.0267994], [-72.1018255, 41.0267198], [-72.1019183, 41.0266126], [-72.102008, 41.02651], [-72.1021038, 41.0264074], [-72.1021892, 41.0263239], [-72.1022485, 41.0262586], [-72.1023615, 41.0261972], [-72.1024677, 41.0261451], [-72.1026533, 41.0260711], [-72.1027147, 41.0260346], [-72.1027604, 41.0259975], [-72.1028346, 41.0259541], [-72.1029334999999, 41.0259208], [-72.103019, 41.0259112], [-72.1030855, 41.0259007], [-72.1031021, 41.0258821], [-72.1031623, 41.0258741], [-72.1032565, 41.0258764], [-72.1033565, 41.0258932], [-72.1034428, 41.0259336], [-72.1034792, 41.0259703], [-72.1034803, 41.0260132], [-72.1034782, 41.0260608], [-72.1034325, 41.0260978], [-72.103365, 41.0261318], [-72.1032631, 41.0261577], [-72.1031669, 41.0262007], [-72.1030866, 41.0262368], [-72.1030214, 41.0262877], [-72.102954, 41.0263193], [-72.1029204, 41.0263661], [-72.1028737, 41.0264268], [-72.1028047, 41.0264919], [-72.1027261999999, 41.0265637], [-72.1026471, 41.0266427], [-72.1025707, 41.0267362], [-72.1025203, 41.0268016], [-72.1024226, 41.0268827], [-72.1023312, 41.026959], [-72.1022722, 41.0270123], [-72.1021891, 41.0271151], [-72.1020942, 41.0271961], [-72.1019916, 41.0273102], [-72.1019284, 41.0273919], [-72.1018618, 41.0274739], [-72.1017887, 41.0275601], [-72.1017201, 41.027618], [-72.1016282, 41.0277038], [-72.101553, 41.0277758], [-72.1014604, 41.0278688], [-72.1013822, 41.0279336], [-72.1013056, 41.028027], [-72.1012817, 41.0280742], [-72.1012427, 41.0281017], [-72.1011495, 41.0282137], [-72.1010601, 41.0283138], [-72.101006, 41.0284055], [-72.1009421, 41.0284944], [-72.1008548, 41.0286186], [-72.100821, 41.0286795], [-72.1007941, 41.0287147], [-72.1007603, 41.0287686], [-72.1007158, 41.0288463], [-72.1006845, 41.0289169], [-72.1006433, 41.0289944], [-72.100609, 41.0290604], [-72.1005483, 41.0291517], [-72.100517, 41.0292201], [-72.1004694, 41.0293023], [-72.1004316, 41.0293727], [-72.1003871, 41.0294551], [-72.1003403, 41.0295874], [-72.1003368, 41.0296683], [-72.1003409, 41.0297924], [-72.100359, 41.0298762], [-72.1003992, 41.0300392], [-72.1004363, 41.0301259], [-72.1004442, 41.030231], [-72.1004684, 41.0303269], [-72.100491, 41.0303848], [-72.1005013, 41.0304352], [-72.1005111, 41.0305711], [-72.1005365, 41.0307123], [-72.1005466, 41.0308365], [-72.100564, 41.0309417], [-72.1005978, 41.0311046], [-72.1006127, 41.0312672], [-72.1006249, 41.0313485], [-72.1006211, 41.0314341], [-72.1005946, 41.0315359], [-72.1005458, 41.0316443], [-72.1005166, 41.0317365], [-72.1005077, 41.0317983], [-72.1004755, 41.0318832], [-72.1004337, 41.0319751], [-72.1003852, 41.0320717], [-72.1003369, 41.0321729], [-72.1003022, 41.0323198], [-72.1002768, 41.0324668], [-72.1002651, 41.0326643], [-72.1002655, 41.0328002], [-72.1002737, 41.0329695], [-72.100282, 41.033065], [-72.1002993, 41.0331751000001], [-72.1003326, 41.0332689], [-72.1003656, 41.0333841], [-72.1004234, 41.0335715000001], [-72.1004769, 41.0337158], [-72.1004938, 41.0337616], [-72.1005147, 41.0338574], [-72.1005232, 41.0339528], [-72.1005375, 41.0340581], [-72.1005304, 41.0341436], [-72.1005248, 41.0342007], [-72.10052, 41.0343103], [-72.1005097, 41.034403], [-72.1004943, 41.0345407], [-72.1004894, 41.0346527], [-72.1004732, 41.0348024], [-72.1004645, 41.0349309], [-72.1004414, 41.0350256], [-72.1003982, 41.0351483], [-72.1003554, 41.0352665], [-72.1003014, 41.0353461], [-72.1002478, 41.0354949], [-72.1002052, 41.0356034], [-72.1001267, 41.0357444], [-72.1000474, 41.0358997], [-72.0999729, 41.0360193], [-72.0998893, 41.0361269], [-72.0998507, 41.0362236], [-72.0998129, 41.0362942], [-72.099761, 41.0363977], [-72.0996968, 41.0365033], [-72.0996512, 41.0366094], [-72.0995961, 41.0367177], [-72.0995696, 41.0368171], [-72.0995332, 41.0369305], [-72.0994916, 41.0370177], [-72.0994211, 41.0371184], [-72.0993617, 41.0372551], [-72.0993123, 41.0373753], [-72.0992488, 41.0375358], [-72.0992064, 41.037635], [-72.0991349, 41.0377594], [-72.0991001, 41.0378323], [-72.0990601, 41.0379576], [-72.0989899, 41.0381226], [-72.0989369, 41.0382548], [-72.0988881, 41.0383632], [-72.0988448, 41.0384884], [-72.0987988, 41.0385993], [-72.09875, 41.0387124], [-72.0987354, 41.0388264], [-72.0986903, 41.038923], [-72.0986415, 41.0390314], [-72.0986047, 41.0391544], [-72.0985913, 41.0392422], [-72.0985816, 41.0393206], [-72.098617, 41.0393762], [-72.0986682, 41.0394252], [-72.0987023, 41.0395047], [-72.0987392, 41.0396009], [-72.0987366, 41.0396605], [-72.0987452, 41.0397537], [-72.0987488, 41.0398848], [-72.0986959, 41.0400145]]}}, {"type": "Feature", "properties": {"FEATURE_ID": "1246342.0000000000000000000000000", "FEATURE": "26.000000000000000000000000000000", "SOURCE_ID": "T06097A", "DATA_SOURC": "A", "SRC_DATE": "19340601", "HOR_ACC": "0", "INFORM": "\u0000\u0000\u0000\u0000\u0000\u0000\u0000\u0000\u0000\u0000\u0000\u0000\u0000\u0000\u0000\u0000\u0000\u0000\u0000\u0000\u0000\u0000\u0000\u0000\u0000\u0000\u0000\u0000\u0000\u0000\u0000\u0000\u0000\u0000\u0000\u0000\u0000\u0000\u0000\u0000\u0000\u0000\u0000\u0000\u0000\u0000\u0000\u0000\u0000\u0000\u0000\u0000\u0000\u0000\u0000\u0000\u0000\u0000\u0000\u0000\u0000\u0000\u0000\u0000\u0000\u0000\u0000\u0000\u0000\u0000\u0000\u0000\u0000\u0000\u0000\u0000\u0000\u0000\u0000\u0000\u0000\u0000\u0000\u0000\u0000\u0000\u0000\u0000\u0000\u0000\u0000\u0000\u0000\u0000\u0000\u0000\u0000\u0000\u0000\u0000\u0000\u0000\u0000\u0000\u0000\u0000\u0000\u0000\u0000\u0000\u0000\u0000\u0000\u0000\u0000\u0000\u0000\u0000\u0000\u0000\u0000\u0000\u0000\u0000\u0000\u0000\u0000\u0000\u0000\u0000\u0000\u0000\u0000\u0000\u0000\u0000\u0000\u0000\u0000\u0000\u0000\u0000\u0000\u0000\u0000\u0000\u0000\u0000\u0000\u0000\u0000\u0000\u0000\u0000\u0000\u0000\u0000\u0000\u0000\u0000\u0000\u0000\u0000\u0000\u0000\u0000\u0000\u0000\u0000\u0000\u0000\u0000\u0000\u0000\u0000\u0000\u0000\u0000\u0000\u0000\u0000\u0000\u0000\u0000\u0000\u0000\u0000\u0000\u0000\u0000\u0000\u0000\u0000\u0000\u0000\u0000\u0000\u0000\u0000\u0000\u0000\u0000\u0000\u0000\u0000\u0000\u0000\u0000\u0000\u0000\u0000\u0000\u0000\u0000\u0000\u0000\u0000\u0000\u0000\u0000\u0000\u0000\u0000\u0000\u0000\u0000\u0000\u0000\u0000\u0000\u0000\u0000\u0000\u0000\u0000\u0000\u0000\u0000\u0000\u0000\u0000\u0000\u0000\u0000\u0000\u0000\u0000\u0000\u0000\u0000\u0000\u0000\u0000\u0000", "RESOLUTION": "0.0000000000000000000000000000000", "ATTRIBUTE": "Undetermined.Approximate", "CLASS": "SHORELINE", "F_CODE": "*********************************", "EX_METH": "S", "EXTRACT_TE": "A"}, "geometry": {"type": "LineString", "coordinates": [[-72.098141, 41.0403567], [-72.098149, 41.0402449], [-72.098165, 41.0401692], [-72.0981799, 41.0401196], [-72.0981973, 41.0400771]]}}, {"type": "Feature", "properties": {"FEATURE_ID": "1246344.0000000000000000000000000", "FEATURE": "26.000000000000000000000000000000", "SOURCE_ID": "T06097A", "DATA_SOURC": "A", "SRC_DATE": "19340601", "HOR_ACC": "0", "INFORM": "\u0000\u0000\u0000\u0000\u0000\u0000\u0000\u0000\u0000\u0000\u0000\u0000\u0000\u0000\u0000\u0000\u0000\u0000\u0000\u0000\u0000\u0000\u0000\u0000\u0000\u0000\u0000\u0000\u0000\u0000\u0000\u0000\u0000\u0000\u0000\u0000\u0000\u0000\u0000\u0000\u0000\u0000\u0000\u0000\u0000\u0000\u0000\u0000\u0000\u0000\u0000\u0000\u0000\u0000\u0000\u0000\u0000\u0000\u0000\u0000\u0000\u0000\u0000\u0000\u0000\u0000\u0000\u0000\u0000\u0000\u0000\u0000\u0000\u0000\u0000\u0000\u0000\u0000\u0000\u0000\u0000\u0000\u0000\u0000\u0000\u0000\u0000\u0000\u0000\u0000\u0000\u0000\u0000\u0000\u0000\u0000\u0000\u0000\u0000\u0000\u0000\u0000\u0000\u0000\u0000\u0000\u0000\u0000\u0000\u0000\u0000\u0000\u0000\u0000\u0000\u0000\u0000\u0000\u0000\u0000\u0000\u0000\u0000\u0000\u0000\u0000\u0000\u0000\u0000\u0000\u0000\u0000\u0000\u0000\u0000\u0000\u0000\u0000\u0000\u0000\u0000\u0000\u0000\u0000\u0000\u0000\u0000\u0000\u0000\u0000\u0000\u0000\u0000\u0000\u0000\u0000\u0000\u0000\u0000\u0000\u0000\u0000\u0000\u0000\u0000\u0000\u0000\u0000\u0000\u0000\u0000\u0000\u0000\u0000\u0000\u0000\u0000\u0000\u0000\u0000\u0000\u0000\u0000\u0000\u0000\u0000\u0000\u0000\u0000\u0000\u0000\u0000\u0000\u0000\u0000\u0000\u0000\u0000\u0000\u0000\u0000\u0000\u0000\u0000\u0000\u0000\u0000\u0000\u0000\u0000\u0000\u0000\u0000\u0000\u0000\u0000\u0000\u0000\u0000\u0000\u0000\u0000\u0000\u0000\u0000\u0000\u0000\u0000\u0000\u0000\u0000\u0000\u0000\u0000\u0000\u0000\u0000\u0000\u0000\u0000\u0000\u0000\u0000\u0000\u0000\u0000\u0000\u0000\u0000\u0000\u0000\u0000\u0000\u0000", "RESOLUTION": "0.0000000000000000000000000000000", "ATTRIBUTE": "Undetermined.Approximate", "CLASS": "SHORELINE", "F_CODE": "*********************************", "EX_METH": "S", "EXTRACT_TE": "A"}, "geometry": {"type": "LineString", "coordinates": [[-72.0990478, 41.0357574], [-72.0989804, 41.0353232000001]]}}, {"type": "Feature", "properties": {"FEATURE_ID": "1246346.0000000000000000000000000", "FEATURE": "26.000000000000000000000000000000", "SOURCE_ID": "T06097A", "DATA_SOURC": "A", "SRC_DATE": "19340601", "HOR_ACC": "0", "INFORM": "\u0000\u0000\u0000\u0000\u0000\u0000\u0000\u0000\u0000\u0000\u0000\u0000\u0000\u0000\u0000\u0000\u0000\u0000\u0000\u0000\u0000\u0000\u0000\u0000\u0000\u0000\u0000\u0000\u0000\u0000\u0000\u0000\u0000\u0000\u0000\u0000\u0000\u0000\u0000\u0000\u0000\u0000\u0000\u0000\u0000\u0000\u0000\u0000\u0000\u0000\u0000\u0000\u0000\u0000\u0000\u0000\u0000\u0000\u0000\u0000\u0000\u0000\u0000\u0000\u0000\u0000\u0000\u0000\u0000\u0000\u0000\u0000\u0000\u0000\u0000\u0000\u0000\u0000\u0000\u0000\u0000\u0000\u0000\u0000\u0000\u0000\u0000\u0000\u0000\u0000\u0000\u0000\u0000\u0000\u0000\u0000\u0000\u0000\u0000\u0000\u0000\u0000\u0000\u0000\u0000\u0000\u0000\u0000\u0000\u0000\u0000\u0000\u0000\u0000\u0000\u0000\u0000\u0000\u0000\u0000\u0000\u0000\u0000\u0000\u0000\u0000\u0000\u0000\u0000\u0000\u0000\u0000\u0000\u0000\u0000\u0000\u0000\u0000\u0000\u0000\u0000\u0000\u0000\u0000\u0000\u0000\u0000\u0000\u0000\u0000\u0000\u0000\u0000\u0000\u0000\u0000\u0000\u0000\u0000\u0000\u0000\u0000\u0000\u0000\u0000\u0000\u0000\u0000\u0000\u0000\u0000\u0000\u0000\u0000\u0000\u0000\u0000\u0000\u0000\u0000\u0000\u0000\u0000\u0000\u0000\u0000\u0000\u0000\u0000\u0000\u0000\u0000\u0000\u0000\u0000\u0000\u0000\u0000\u0000\u0000\u0000\u0000\u0000\u0000\u0000\u0000\u0000\u0000\u0000\u0000\u0000\u0000\u0000\u0000\u0000\u0000\u0000\u0000\u0000\u0000\u0000\u0000\u0000\u0000\u0000\u0000\u0000\u0000\u0000\u0000\u0000\u0000\u0000\u0000\u0000\u0000\u0000\u0000\u0000\u0000\u0000\u0000\u0000\u0000\u0000\u0000\u0000\u0000\u0000\u0000\u0000\u0000\u0000\u0000", "RESOLUTION": "0.0000000000000000000000000000000", "ATTRIBUTE": "Undetermined.Approximate", "CLASS": "SHORELINE", "F_CODE": "*********************************", "EX_METH": "S", "EXTRACT_TE": "A"}, "geometry": {"type": "LineString", "coordinates": [[-72.0986959, 41.0400145], [-72.0985158, 41.0405641]]}}, {"type": "Feature", "properties": {"FEATURE_ID": "1246822.0000000000000000000000000", "FEATURE": "205.00000000000000000000000000000", "SOURCE_ID": "T06097A", "DATA_SOURC": "A", "SRC_DATE": "19340601", "HOR_ACC": "0", "INFORM": "\u0000\u0000\u0000\u0000\u0000\u0000\u0000\u0000\u0000\u0000\u0000\u0000\u0000\u0000\u0000\u0000\u0000\u0000\u0000\u0000\u0000\u0000\u0000\u0000\u0000\u0000\u0000\u0000\u0000\u0000\u0000\u0000\u0000\u0000\u0000\u0000\u0000\u0000\u0000\u0000\u0000\u0000\u0000\u0000\u0000\u0000\u0000\u0000\u0000\u0000\u0000\u0000\u0000\u0000\u0000\u0000\u0000\u0000\u0000\u0000\u0000\u0000\u0000\u0000\u0000\u0000\u0000\u0000\u0000\u0000\u0000\u0000\u0000\u0000\u0000\u0000\u0000\u0000\u0000\u0000\u0000\u0000\u0000\u0000\u0000\u0000\u0000\u0000\u0000\u0000\u0000\u0000\u0000\u0000\u0000\u0000\u0000\u0000\u0000\u0000\u0000\u0000\u0000\u0000\u0000\u0000\u0000\u0000\u0000\u0000\u0000\u0000\u0000\u0000\u0000\u0000\u0000\u0000\u0000\u0000\u0000\u0000\u0000\u0000\u0000\u0000\u0000\u0000\u0000\u0000\u0000\u0000\u0000\u0000\u0000\u0000\u0000\u0000\u0000\u0000\u0000\u0000\u0000\u0000\u0000\u0000\u0000\u0000\u0000\u0000\u0000\u0000\u0000\u0000\u0000\u0000\u0000\u0000\u0000\u0000\u0000\u0000\u0000\u0000\u0000\u0000\u0000\u0000\u0000\u0000\u0000\u0000\u0000\u0000\u0000\u0000\u0000\u0000\u0000\u0000\u0000\u0000\u0000\u0000\u0000\u0000\u0000\u0000\u0000\u0000\u0000\u0000\u0000\u0000\u0000\u0000\u0000\u0000\u0000\u0000\u0000\u0000\u0000\u0000\u0000\u0000\u0000\u0000\u0000\u0000\u0000\u0000\u0000\u0000\u0000\u0000\u0000\u0000\u0000\u0000\u0000\u0000\u0000\u0000\u0000\u0000\u0000\u0000\u0000\u0000\u0000\u0000\u0000\u0000\u0000\u0000\u0000\u0000\u0000\u0000\u0000\u0000\u0000\u0000\u0000\u0000\u0000\u0000\u0000\u0000\u0000\u0000\u0000\u0000", "RESOLUTION": "0.0000000000000000000000000000000", "ATTRIBUTE": "User Added Line", "CLASS": "CARTOGRAPHIC LIMIT", "F_CODE": "*********************************", "EX_METH": "S", "EXTRACT_TE": "A"}, "geometry": {"type": "LineString", "coordinates": [[-72.1444127, 41.0210432], [-72.1410336, 41.0199839], [-72.1397179, 41.0189789], [-72.13836, 41.0189452], [-72.1368996, 41.019538], [-72.1340937, 41.0198115], [-72.1303247, 41.0196606], [-72.1271407, 41.0182085], [-72.1257265, 41.0159999], [-72.1219603, 41.010587], [-72.1178375, 41.0047075], [-72.1159241, 41.003573], [-72.1114872, 41.0031759], [-72.1062159, 41.002872], [-72.0995043, 41.0027033], [-72.0955806, 41.0026618], [-72.0905883, 41.0028791], [-72.0870488, 41.0043911], [-72.0838034, 41.0060818], [-72.0790997, 41.0083076], [-72.0629012, 41.0168155], [-72.0614376, 41.0177481], [-72.0610275, 41.0180546], [-72.0602692, 41.0181306], [-72.0595809, 41.0180415], [-72.0584717, 41.0175128], [-72.0576184, 41.0168953], [-72.0570163, 41.0162839], [-72.0566731, 41.0155128], [-72.0561164, 41.014593], [-72.0557544, 41.0135353], [-72.0555843, 41.0124109], [-72.0557482, 41.0115572], [-72.0562418, 41.0110694], [-72.0570464, 41.010661], [-72.0580567, 41.0098765], [-72.0586876, 41.0091301], [-72.0587554, 41.0076066], [-72.0588714, 41.0057032], [-72.0585664, 41.004075], [-72.0584035, 41.0034989], [-72.058457, 41.0029999], [-72.0587977, 41.0024129], [-72.0595931, 41.0015038], [-72.0605496, 41.0005035], [-72.0614382, 40.9996206], [-72.0615026, 40.9988835], [-72.0609292, 40.9976296], [-72.0598541, 40.9963394], [-72.0582088, 40.9944385], [-72.0571357, 40.9938154], [-72.0552384, 40.9933379], [-72.0529988, 40.9927802], [-72.0511129, 40.992756], [-72.0499596, 40.9932269], [-72.0489141, 40.9955115], [-72.0478642, 40.9964856], [-72.0463369, 40.9975831], [-72.0443203, 40.9987897], [-72.0405438, 41.0005228], [-72.0377626, 41.0019385], [-72.036505, 41.0030499], [-72.0356269, 41.004114], [-72.0354976, 41.0053117], [-72.0356875, 41.0071109], [-72.0358983, 41.0080219], [-72.0365457, 41.0090156], [-72.037113, 41.0096975], [-72.037702, 41.0105943], [-72.0383639, 41.0119697], [-72.0385748, 41.0128805], [-72.0393155, 41.0139005], [-72.0406657, 41.0153649], [-72.0413113, 41.0164062], [-72.0419903, 41.0174006], [-72.043715, 41.0182312], [-72.0459492, 41.0189321], [-72.0486829, 41.0197169], [-72.0507106, 41.0201025], [-72.052705, 41.0205348], [-72.0536214, 41.0211539], [-72.0535256, 41.0218902], [-72.053186, 41.0224535], [-72.0521327, 41.0227839], [-72.050816, 41.022679], [-72.0486245, 41.0224321], [-72.0451688, 41.0216048], [-72.0398426, 41.0203957], [-72.0349437, 41.0194834], [-72.0315942, 41.018678], [-72.0298657, 41.0186334], [-72.0285133, 41.0186223], [-72.027314, 41.0187106], [-72.0261316, 41.0191091], [-72.0243083, 41.0197768], [-72.0205983, 41.0211107], [-72.0184443, 41.0221275], [-72.0159945, 41.0241134], [-72.0147349, 41.0255343], [-72.0140231, 41.0266597], [-72.0135022, 41.0277423], [-72.0130041, 41.0283253], [-72.012382, 41.0288572], [-72.0109935999999, 41.0296315000001], [-72.0090615, 41.030606], [-72.0071239, 41.0316994], [-72.0058871, 41.0325967], [-72.0047299, 41.0338296], [-72.0044484, 41.0351806], [-72.0043055, 41.0362492], [-72.0041506, 41.0368885], [-72.0034721, 41.0372759], [-72.0024175, 41.0376298], [-72.0013834, 41.0382227], [-72.0005077, 41.0387954], [-71.9997164, 41.0395851], [-71.9972983, 41.0422387], [-71.9951713, 41.0447092], [-71.994108, 41.0459443], [-71.9935073, 41.0466914], [-71.9929186, 41.0471762], [-71.9917998, 41.0475522], [-71.9901107, 41.0480085], [-71.9884324, 41.0482267], [-71.9869981, 41.0486182], [-71.985154, 41.0490226], [-71.9840751, 41.0492089], [-71.9826949, 41.0491012], [-71.9810255, 41.048438], [-71.9788975, 41.0474766], [-71.9782938, 41.0469127], [-71.9781511, 41.0459081], [-71.9782034, 41.0447657], [-71.978029, 41.0437602], [-71.977548, 41.04258], [-71.9774048, 41.0422665], [-71.9762017, 41.0417345], [-71.9745713, 41.0415964], [-71.9735317, 41.0416167], [-71.9718895, 41.0417403], [-71.9701767, 41.0420289], [-71.9685439, 41.0426292], [-71.967167, 41.0431411], [-71.9659581, 41.0434192], [-71.9642518, 41.0435648], [-71.9629324, 41.0435062], [-71.9622683, 41.0428929], [-71.9619042, 41.0425974], [-71.9617127, 41.0419727], [-71.9617576, 41.0409969], [-71.9620348, 41.0390741000001], [-71.9626151, 41.0380885], [-71.9628455, 41.0370485], [-71.9624192, 41.0364653], [-71.9606892, 41.0363053], [-71.9590032999999, 41.0368328], [-71.958113, 41.0381246], [-71.9575602, 41.0402833], [-71.957913, 41.0424658], [-71.9595536, 41.044568], [-71.9611784, 41.0470129], [-71.9619919, 41.049036], [-71.9619156, 41.0506926], [-71.9598564, 41.0527543], [-71.9572354, 41.0538861], [-71.9551759, 41.0559477], [-71.9549749, 41.057029], [-71.9556224, 41.0577324], [-71.9570949, 41.058572], [-71.958942, 41.0594787], [-71.9605005, 41.0600919], [-71.9620353, 41.0612189], [-71.9633305999999, 41.0626256], [-71.9649773, 41.0646135], [-71.9653722, 41.065882], [-71.9653065, 41.0673102], [-71.9651733, 41.0685648], [-71.9642018, 41.069969], [-71.9629388, 41.0711367], [-71.9609992, 41.0722293], [-71.9589007, 41.0734894], [-71.9563623, 41.0744518], [-71.9519368, 41.0753641], [-71.9465562, 41.0756792], [-71.9422509, 41.075622], [-71.9387032, 41.0755278], [-71.9353982, 41.0754425]]}}, {"type": "Feature", "properties": {"FEATURE_ID": "1246340.0000000000000000000000000", "FEATURE": "205.00000000000000000000000000000", "SOURCE_ID": "T06097A", "DATA_SOURC": "A", "SRC_DATE": "19340601", "HOR_ACC": "0", "INFORM": "\u0000\u0000\u0000\u0000\u0000\u0000\u0000\u0000\u0000\u0000\u0000\u0000\u0000\u0000\u0000\u0000\u0000\u0000\u0000\u0000\u0000\u0000\u0000\u0000\u0000\u0000\u0000\u0000\u0000\u0000\u0000\u0000\u0000\u0000\u0000\u0000\u0000\u0000\u0000\u0000\u0000\u0000\u0000\u0000\u0000\u0000\u0000\u0000\u0000\u0000\u0000\u0000\u0000\u0000\u0000\u0000\u0000\u0000\u0000\u0000\u0000\u0000\u0000\u0000\u0000\u0000\u0000\u0000\u0000\u0000\u0000\u0000\u0000\u0000\u0000\u0000\u0000\u0000\u0000\u0000\u0000\u0000\u0000\u0000\u0000\u0000\u0000\u0000\u0000\u0000\u0000\u0000\u0000\u0000\u0000\u0000\u0000\u0000\u0000\u0000\u0000\u0000\u0000\u0000\u0000\u0000\u0000\u0000\u0000\u0000\u0000\u0000\u0000\u0000\u0000\u0000\u0000\u0000\u0000\u0000\u0000\u0000\u0000\u0000\u0000\u0000\u0000\u0000\u0000\u0000\u0000\u0000\u0000\u0000\u0000\u0000\u0000\u0000\u0000\u0000\u0000\u0000\u0000\u0000\u0000\u0000\u0000\u0000\u0000\u0000\u0000\u0000\u0000\u0000\u0000\u0000\u0000\u0000\u0000\u0000\u0000\u0000\u0000\u0000\u0000\u0000\u0000\u0000\u0000\u0000\u0000\u0000\u0000\u0000\u0000\u0000\u0000\u0000\u0000\u0000\u0000\u0000\u0000\u0000\u0000\u0000\u0000\u0000\u0000\u0000\u0000\u0000\u0000\u0000\u0000\u0000\u0000\u0000\u0000\u0000\u0000\u0000\u0000\u0000\u0000\u0000\u0000\u0000\u0000\u0000\u0000\u0000\u0000\u0000\u0000\u0000\u0000\u0000\u0000\u0000\u0000\u0000\u0000\u0000\u0000\u0000\u0000\u0000\u0000\u0000\u0000\u0000\u0000\u0000\u0000\u0000\u0000\u0000\u0000\u0000\u0000\u0000\u0000\u0000\u0000\u0000\u0000\u0000\u0000\u0000\u0000\u0000\u0000\u0000", "RESOLUTION": "0.0000000000000000000000000000000", "ATTRIBUTE": "User Added Line", "CLASS": "CARTOGRAPHIC LIMIT", "F_CODE": "*********************************", "EX_METH": "S", "EXTRACT_TE": "A"}, "geometry": {"type": "LineString", "coordinates": [[-72.1234788, 41.0908362], [-72.1138754999999, 41.0793525], [-72.0968626, 41.0606236], [-72.0977079, 41.058586], [-72.0988449, 41.0567845], [-72.0990033, 41.0549011], [-72.0985832, 41.054147], [-72.0962713, 41.0534597], [-72.0937028, 41.053452], [-72.0913231, 41.0543072], [-72.0896852, 41.0554668], [-72.0845298, 41.0609987], [-72.0814827, 41.0632661], [-72.0781308, 41.0655832], [-72.0750351, 41.0689363], [-72.0750801, 41.0696237], [-72.076177, 41.0704522], [-72.0776588, 41.0711189], [-72.0816294, 41.0719059], [-72.0862945, 41.072367], [-72.0888612, 41.0724319], [-72.0922734, 41.072175], [-72.0936296, 41.0722665], [-72.0947318, 41.0729805], [-72.0964805, 41.0744544], [-72.0975627, 41.0756255], [-72.0975049, 41.0769395], [-72.0969337, 41.0778973], [-72.0941503, 41.0793141], [-72.0903803, 41.0808203], [-72.0882915, 41.0819115], [-72.0866782, 41.0824997], [-72.0864264, 41.0830653], [-72.0866905, 41.0839299], [-72.0881173, 41.0841375], [-72.0922549, 41.0845852], [-72.095698, 41.0853583], [-72.0978525, 41.0862134], [-72.0996194, 41.0872873], [-72.1009408, 41.0881785], [-72.1011322, 41.0889838000001], [-72.1002462, 41.0902198], [-72.0976864, 41.0916996], [-72.0947918, 41.0939143], [-72.0904923, 41.0971228], [-72.088823, 41.098968], [-72.0876145, 41.1006532], [-72.0875716, 41.1016244], [-72.0888781, 41.1028584], [-72.092206, 41.1045438], [-72.09742, 41.1063339], [-72.1001489, 41.1078895], [-72.1025685, 41.1096092], [-72.104787, 41.1117264]]}}], "credit": "NOAA NGS Shoreline Data Rescue Project of Montauk Point, NY, NY1934C. Imagery 1934-06-01. NAD83.", "source_url": "https://nsde.ngs.noaa.gov/downloads/NY1934C.zip", "inport": "https://www.fisheries.noaa.gov/inport/item/63954"}