{"type":"FeatureCollection","crs":{"type":"name","properties":{"name":"EPSG:4326"}},"features":[{"type":"Feature","id":27720,"geometry":{"type":"Polygon","coordinates":[[[-71.940380459,41.0758760430001],[-71.940888474,41.075756905],[-71.941177021,41.075668331],[-71.941849759,41.0752940770001],[-71.9423163399999,41.0752389100001],[-71.9424267759999,41.0754826080001],[-71.940814119,41.0760593370001],[-71.93958972,41.076565477],[-71.9385166879999,41.0770747500001],[-71.938402754,41.0766889080001],[-71.938798972,41.0764859220001],[-71.9389551369999,41.0763271170001],[-71.93922843,41.07619357],[-71.939899203,41.0759789900001],[-71.940380459,41.0758760430001]]]},"properties":{"OBJECTID":27720,"GlobalID":"e4cb344e-2055-4048-ba82-bc496ec375f2","placementareaidpk":"6880e80e-3c1c-402a-a099-6833a6d8d93b","featurename":"Lake_Montauk_Western_Beach","featuredescription":"Lake Montauk","placementtype":"onshore","operationalstatus":"active","startdate":-2208988800000,"enddate":10413792000000,"usacedistrictcode":"CENAN","districtidfk":" ","leveldesignation":1,"mediaidfk":"CENAN/SED_CENAN_DIS_20240130.ZIP","metadataid":null,"sdsid":null,"parentplacementareaidfk":"00000000-0000-0000-0000-000000000000","resourcetype":"na","sourceagency":"CENAN_DIS","dateloadedenterprise":null,"Shape__Area":1.5412826996907825E-06,"Shape__Length":0.0091269794342312277}}]}