{"type":"FeatureCollection","name":"usgs_lt_montauk","crs":{"type":"name","properties":{"name":"urn:ogc:def:crs:OGC:1.3:CRS84"}},"bbox":[-72.02,41.02,-71.85,41.09],"properties":{"source":"USGS OFR 2010-1119 Himmelstoss et al. 2010, LongIsland_LT.shp","note":"Long-term linear regression rates (LRR, m/yr) for open-ocean south shore of Long Island. Extracted to Montauk bbox. Negative = erosion (landward). SOUTH SHORE ONLY \u2014 do not apply to Soundview / Block Island Sound.","extracted":"2026-08-24","n_features":254},"features":[{"type":"Feature","properties":{"OBJECTID":3443,"TRANSECTID":3443,"TRANSORDER":3443,"BASELINEID":10,"LRR":0.0,"LR2":0.0,"LSE":18.78,"LCI90":0.2,"AZIMUTH":333.7},"geometry":{"type":"LineString","coordinates":[[-71.95367509962323,41.02443563347556],[-71.95709921691554,41.03017796129305]]}},{"type":"Feature","properties":{"OBJECTID":3444,"TRANSECTID":3444,"TRANSORDER":3444,"BASELINEID":10,"LRR":-0.01,"LR2":0.0,"LSE":18.0,"LCI90":0.2,"AZIMUTH":333.7},"geometry":{"type":"LineString","coordinates":[[-71.953133494371,41.02462084276803],[-71.95655757218093,41.03036318519712]]}},{"type":"Feature","properties":{"OBJECTID":3445,"TRANSECTID":3445,"TRANSORDER":3445,"BASELINEID":10,"LRR":-0.01,"LR2":0.0,"LSE":17.86,"LCI90":0.19,"AZIMUTH":333.7},"geometry":{"type":"LineString","coordinates":[[-71.95259188620446,41.02480604936559],[-71.95601592452758,41.03054840647464]]}},{"type":"Feature","properties":{"OBJECTID":3446,"TRANSECTID":3446,"TRANSORDER":3446,"BASELINEID":10,"LRR":-0.04,"LR2":0.02,"LSE":17.5,"LCI90":0.19,"AZIMUTH":333.7},"geometry":{"type":"LineString","coordinates":[[-71.952050275122,41.02499125330247],[-71.95547427395867,41.030733625056826]]}},{"type":"Feature","properties":{"OBJECTID":3447,"TRANSECTID":3447,"TRANSORDER":3447,"BASELINEID":10,"LRR":-0.04,"LR2":0.02,"LSE":17.13,"LCI90":0.19,"AZIMUTH":333.7},"geometry":{"type":"LineString","coordinates":[[-71.95150866112209,41.02517645461299],[-71.95493262047113,41.03091884101234]]}},{"type":"Feature","properties":{"OBJECTID":3448,"TRANSECTID":3448,"TRANSORDER":3448,"BASELINEID":10,"LRR":-0.06,"LR2":0.05,"LSE":17.48,"LCI90":0.19,"AZIMUTH":333.7},"geometry":{"type":"LineString","coordinates":[[-71.95096704420793,41.02536165322844],[-71.9543909640681,41.0311040542725]]}},{"type":"Feature","properties":{"OBJECTID":3449,"TRANSECTID":3449,"TRANSORDER":3449,"BASELINEID":10,"LRR":-0.11,"LR2":0.12,"LSE":17.79,"LCI90":0.19,"AZIMUTH":333.7},"geometry":{"type":"LineString","coordinates":[[-71.95042542437636,41.02554684921741],[-71.95384930474805,41.03128926487154]]}},{"type":"Feature","properties":{"OBJECTID":3450,"TRANSECTID":3450,"TRANSORDER":3450,"BASELINEID":10,"LRR":-0.15,"LR2":0.23,"LSE":16.33,"LCI90":0.18,"AZIMUTH":333.7},"geometry":{"type":"LineString","coordinates":[[-71.94988380163059,41.025732042511244],[-71.9533076425094,41.03147447284374]]}},{"type":"Feature","properties":{"OBJECTID":3451,"TRANSECTID":3451,"TRANSORDER":3451,"BASELINEID":10,"LRR":-0.18,"LR2":0.31,"LSE":15.87,"LCI90":0.17,"AZIMUTH":333.7},"geometry":{"type":"LineString","coordinates":[[-71.94934217596749,41.025917233178504],[-71.95276597735537,41.031659678120455]]}},{"type":"Feature","properties":{"OBJECTID":3452,"TRANSECTID":3452,"TRANSORDER":3452,"BASELINEID":10,"LRR":-0.14,"LR2":0.22,"LSE":16.16,"LCI90":0.18,"AZIMUTH":333.7},"geometry":{"type":"LineString","coordinates":[[-71.94880054739025,41.02610242115049],[-71.95222430928283,41.031844880770194]]}},{"type":"Feature","properties":{"OBJECTID":3453,"TRANSECTID":3453,"TRANSORDER":3453,"BASELINEID":10,"LRR":-0.07,"LR2":0.06,"LSE":16.64,"LCI90":0.18,"AZIMUTH":333.7},"geometry":{"type":"LineString","coordinates":[[-71.94825891589728,41.02628760646153],[-71.95168263829494,41.03203008072438]]}},{"type":"Feature","properties":{"OBJECTID":3454,"TRANSECTID":3454,"TRANSORDER":3454,"BASELINEID":10,"LRR":-0.01,"LR2":0.0,"LSE":18.43,"LCI90":0.2,"AZIMUTH":333.7},"geometry":{"type":"LineString","coordinates":[[-71.9477172814871,41.026472789145814],[-71.95114096438861,41.03221527805147]]}},{"type":"Feature","properties":{"OBJECTID":3455,"TRANSECTID":3455,"TRANSORDER":3455,"BASELINEID":10,"LRR":0.01,"LR2":0.0,"LSE":18.97,"LCI90":0.21,"AZIMUTH":333.7},"geometry":{"type":"LineString","coordinates":[[-71.94717564416285,41.02665796913474],[-71.95059928756696,41.032400472682916]]}},{"type":"Feature","properties":{"OBJECTID":3456,"TRANSECTID":3456,"TRANSORDER":3456,"BASELINEID":10,"LRR":0.03,"LR2":0.01,"LSE":19.11,"LCI90":0.21,"AZIMUTH":333.7},"geometry":{"type":"LineString","coordinates":[[-71.9466340039214,41.026843146496816],[-71.95005760782853,41.03258566465286]]}},{"type":"Feature","properties":{"OBJECTID":3457,"TRANSECTID":3457,"TRANSORDER":3457,"BASELINEID":10,"LRR":0.05,"LR2":0.02,"LSE":19.75,"LCI90":0.22,"AZIMUTH":333.7},"geometry":{"type":"LineString","coordinates":[[-71.946092360766,41.027028321163435],[-71.94951592517171,41.032770853995686]]}},{"type":"Feature","properties":{"OBJECTID":3458,"TRANSECTID":3458,"TRANSORDER":3458,"BASELINEID":10,"LRR":0.05,"LR2":0.02,"LSE":19.95,"LCI90":0.22,"AZIMUTH":333.7},"geometry":{"type":"LineString","coordinates":[[-71.94555071474032,41.02721349317],[-71.9489742395997,41.03295604064262]]}},{"type":"Feature","properties":{"OBJECTID":3459,"TRANSECTID":3459,"TRANSORDER":3459,"BASELINEID":10,"LRR":0.06,"LR2":0.04,"LSE":17.39,"LCI90":0.19,"AZIMUTH":333.7},"geometry":{"type":"LineString","coordinates":[[-71.94500906575223,41.02739866254845],[-71.9484325511094,41.03314122466228]]}},{"type":"Feature","properties":{"OBJECTID":3460,"TRANSECTID":3460,"TRANSORDER":3460,"BASELINEID":10,"LRR":0.05,"LR2":0.04,"LSE":14.93,"LCI90":0.16,"AZIMUTH":333.7},"geometry":{"type":"LineString","coordinates":[[-71.94446741385026,41.027583829231226],[-71.94789085970396,41.03332640598605]]}},{"type":"Feature","properties":{"OBJECTID":3461,"TRANSECTID":3461,"TRANSORDER":3461,"BASELINEID":10,"LRR":0.12,"LR2":0.17,"LSE":15.61,"LCI90":0.17,"AZIMUTH":333.7},"geometry":{"type":"LineString","coordinates":[[-71.94392575903122,41.02776899328699],[-71.94734916538184,41.03351158464808]]}},{"type":"Feature","properties":{"OBJECTID":3462,"TRANSECTID":3462,"TRANSORDER":3462,"BASELINEID":10,"LRR":0.1,"LR2":0.15,"LSE":14.36,"LCI90":0.16,"AZIMUTH":333.7},"geometry":{"type":"LineString","coordinates":[[-71.94338410129834,41.02795415464697],[-71.9468074681415,41.03369676068272]]}},{"type":"Feature","properties":{"OBJECTID":3463,"TRANSECTID":3463,"TRANSORDER":3463,"BASELINEID":10,"LRR":0.07,"LR2":0.1,"LSE":13.09,"LCI90":0.14,"AZIMUTH":333.7},"geometry":{"type":"LineString","coordinates":[[-71.94284244064843,41.028139313379846],[-71.94626576803141,41.03388193402246]]}},{"type":"Feature","properties":{"OBJECTID":3464,"TRANSECTID":3464,"TRANSORDER":3464,"BASELINEID":10,"LRR":0.05,"LR2":0.05,"LSE":13.16,"LCI90":0.14,"AZIMUTH":333.7},"geometry":{"type":"LineString","coordinates":[[-71.9423007770848,41.028324469416866],[-71.94572406495786,41.03406710473353]]}},{"type":"Feature","properties":{"OBJECTID":3465,"TRANSECTID":3465,"TRANSORDER":3465,"BASELINEID":10,"LRR":0.04,"LR2":0.02,"LSE":15.19,"LCI90":0.17,"AZIMUTH":333.7},"geometry":{"type":"LineString","coordinates":[[-71.9417591106058,41.02850962279231],[-71.9451823589693,41.03425227274836]]}},{"type":"Feature","properties":{"OBJECTID":3466,"TRANSECTID":3466,"TRANSORDER":3466,"BASELINEID":10,"LRR":0.0,"LR2":0.0,"LSE":15.93,"LCI90":0.17,"AZIMUTH":333.7},"geometry":{"type":"LineString","coordinates":[[-71.9412174412099,41.0286947735405],[-71.94464065006267,41.03443743813562]]}},{"type":"Feature","properties":{"OBJECTID":3467,"TRANSECTID":3467,"TRANSORDER":3467,"BASELINEID":10,"LRR":-0.02,"LR2":0.01,"LSE":15.95,"LCI90":0.17,"AZIMUTH":333.7},"geometry":{"type":"LineString","coordinates":[[-71.9406757689003,41.028879921592704],[-71.94409893824111,41.03462260082658]]}},{"type":"Feature","properties":{"OBJECTID":3468,"TRANSECTID":3468,"TRANSORDER":3468,"BASELINEID":10,"LRR":-0.04,"LR2":0.03,"LSE":15.35,"LCI90":0.17,"AZIMUTH":333.7},"geometry":{"type":"LineString","coordinates":[[-71.94013409367389,41.02906506701753],[-71.94355722350308,41.03480776085556]]}},{"type":"Feature","properties":{"OBJECTID":3469,"TRANSECTID":3469,"TRANSORDER":3469,"BASELINEID":10,"LRR":-0.09,"LR2":0.11,"LSE":15.07,"LCI90":0.16,"AZIMUTH":333.7},"geometry":{"type":"LineString","coordinates":[[-71.93959241553381,41.02925020974626],[-71.94301550584701,41.03499291825672]]}},{"type":"Feature","properties":{"OBJECTID":3470,"TRANSECTID":3470,"TRANSORDER":3470,"BASELINEID":10,"LRR":-0.1,"LR2":0.14,"LSE":14.9,"LCI90":0.16,"AZIMUTH":333.7},"geometry":{"type":"LineString","coordinates":[[-71.93905073447694,41.029435349847546],[-71.94247378527615,41.03517807296152]]}},{"type":"Feature","properties":{"OBJECTID":3471,"TRANSECTID":3471,"TRANSORDER":3471,"BASELINEID":10,"LRR":-0.08,"LR2":0.09,"LSE":14.83,"LCI90":0.16,"AZIMUTH":333.7},"geometry":{"type":"LineString","coordinates":[[-71.93850905050651,41.029620487252636],[-71.9419320617873,41.03536322503841]]}},{"type":"Feature","properties":{"OBJECTID":3472,"TRANSECTID":3472,"TRANSORDER":3472,"BASELINEID":10,"LRR":-0.05,"LR2":0.05,"LSE":13.38,"LCI90":0.15,"AZIMUTH":333.7},"geometry":{"type":"LineString","coordinates":[[-71.93796736362091,41.029805621995855],[-71.94139033538366,41.035548374418845]]}},{"type":"Feature","properties":{"OBJECTID":3473,"TRANSECTID":3473,"TRANSORDER":3473,"BASELINEID":10,"LRR":-0.02,"LR2":0.01,"LSE":13.64,"LCI90":0.15,"AZIMUTH":333.7},"geometry":{"type":"LineString","coordinates":[[-71.93742567381865,41.02999075411142],[-71.94084860606215,41.03573352117126]]}},{"type":"Feature","properties":{"OBJECTID":3474,"TRANSECTID":3474,"TRANSORDER":3474,"BASELINEID":10,"LRR":-0.03,"LR2":0.02,"LSE":13.48,"LCI90":0.15,"AZIMUTH":333.7},"geometry":{"type":"LineString","coordinates":[[-71.9368839811029,41.03017588353071],[-71.94030687382588,41.035918665227136]]}},{"type":"Feature","properties":{"OBJECTID":3475,"TRANSECTID":3475,"TRANSORDER":3475,"BASELINEID":10,"LRR":-0.04,"LR2":0.03,"LSE":14.06,"LCI90":0.15,"AZIMUTH":333.7},"geometry":{"type":"LineString","coordinates":[[-71.9363422854705,41.03036101032223],[-71.9397651386734,41.036103806620595]]}},{"type":"Feature","properties":{"OBJECTID":3476,"TRANSECTID":3476,"TRANSORDER":3476,"BASELINEID":10,"LRR":-0.07,"LR2":0.08,"LSE":13.53,"LCI90":0.15,"AZIMUTH":333.7},"geometry":{"type":"LineString","coordinates":[[-71.93580058692467,41.030546134417385],[-71.93922340060305,41.03628894538597]]}},{"type":"Feature","properties":{"OBJECTID":3477,"TRANSECTID":3477,"TRANSORDER":3477,"BASELINEID":10,"LRR":-0.11,"LR2":0.23,"LSE":12.18,"LCI90":0.13,"AZIMUTH":333.7},"geometry":{"type":"LineString","coordinates":[[-71.93525888546226,41.030731255884675],[-71.93868165961811,41.03647408145464]]}},{"type":"Feature","properties":{"OBJECTID":3478,"TRANSECTID":3478,"TRANSORDER":3478,"BASELINEID":10,"LRR":-0.15,"LR2":0.37,"LSE":11.55,"LCI90":0.13,"AZIMUTH":333.7},"geometry":{"type":"LineString","coordinates":[[-71.93471718108648,41.03091637465553],[-71.93813991571541,41.036659214895074]]}},{"type":"Feature","properties":{"OBJECTID":3479,"TRANSECTID":3479,"TRANSORDER":3479,"BASELINEID":10,"LRR":-0.21,"LR2":0.54,"LSE":11.66,"LCI90":0.13,"AZIMUTH":333.7},"geometry":{"type":"LineString","coordinates":[[-71.93417547379578,41.0311014907641],[-71.93759816889815,41.036844345638684]]}},{"type":"Feature","properties":{"OBJECTID":3480,"TRANSECTID":3480,"TRANSORDER":3480,"BASELINEID":10,"LRR":-0.22,"LR2":0.5,"LSE":13.3,"LCI90":0.15,"AZIMUTH":333.7},"geometry":{"type":"LineString","coordinates":[[-71.93363376358855,41.031286604244734],[-71.93705641916317,41.037029473754004]]}},{"type":"Feature","properties":{"OBJECTID":3481,"TRANSECTID":3481,"TRANSORDER":3481,"BASELINEID":10,"LRR":-0.2,"LR2":0.45,"LSE":13.6,"LCI90":0.15,"AZIMUTH":333.7},"geometry":{"type":"LineString","coordinates":[[-71.93309205046809,41.0314717150287],[-71.93651466651372,41.03721459917238]]}},{"type":"Feature","properties":{"OBJECTID":3482,"TRANSECTID":3482,"TRANSORDER":3482,"BASELINEID":10,"LRR":-0.19,"LR2":0.36,"LSE":15.48,"LCI90":0.17,"AZIMUTH":333.7},"geometry":{"type":"LineString","coordinates":[[-71.93255033443116,41.031656823184626],[-71.93597291094815,41.037399721928026]]}},{"type":"Feature","properties":{"OBJECTID":3483,"TRANSECTID":3483,"TRANSORDER":3483,"BASELINEID":10,"LRR":-0.2,"LR2":0.43,"LSE":13.86,"LCI90":0.15,"AZIMUTH":333.7},"geometry":{"type":"LineString","coordinates":[[-71.93200861548102,41.031841928643786],[-71.935431152465,41.037584842055296]]}},{"type":"Feature","properties":{"OBJECTID":3484,"TRANSECTID":3484,"TRANSORDER":3484,"BASELINEID":10,"LRR":-0.19,"LR2":0.43,"LSE":13.24,"LCI90":0.14,"AZIMUTH":333.7},"geometry":{"type":"LineString","coordinates":[[-71.93146689361612,41.03202703144047],[-71.93488939106743,41.03776995948543]]}},{"type":"Feature","properties":{"OBJECTID":3485,"TRANSECTID":3485,"TRANSORDER":3485,"BASELINEID":10,"LRR":-0.17,"LR2":0.37,"LSE":13.39,"LCI90":0.15,"AZIMUTH":333.7},"geometry":{"type":"LineString","coordinates":[[-71.93092516883485,41.03221213160899],[-71.93434762675233,41.037955074287076]]}},{"type":"Feature","properties":{"OBJECTID":3486,"TRANSECTID":3486,"TRANSORDER":3486,"BASELINEID":10,"LRR":-0.16,"LR2":0.27,"LSE":15.44,"LCI90":0.17,"AZIMUTH":333.7},"geometry":{"type":"LineString","coordinates":[[-71.93038344114045,41.0323972290806],[-71.93380585952285,41.03814018639148]]}},{"type":"Feature","properties":{"OBJECTID":3487,"TRANSECTID":3487,"TRANSORDER":3487,"BASELINEID":10,"LRR":-0.16,"LR2":0.32,"LSE":14.26,"LCI90":0.16,"AZIMUTH":333.7},"geometry":{"type":"LineString","coordinates":[[-71.92984171052976,41.03258232392393],[-71.93326408937747,41.03832529583302]]}},{"type":"Feature","properties":{"OBJECTID":3488,"TRANSECTID":3488,"TRANSORDER":3488,"BASELINEID":10,"LRR":-0.16,"LR2":0.39,"LSE":12.12,"LCI90":0.13,"AZIMUTH":333.7},"geometry":{"type":"LineString","coordinates":[[-71.92929997700597,41.03276741607025],[-71.93272231631461,41.038510402645834]]}},{"type":"Feature","properties":{"OBJECTID":3489,"TRANSECTID":3489,"TRANSORDER":3489,"BASELINEID":10,"LRR":-0.15,"LR2":0.41,"LSE":10.79,"LCI90":0.12,"AZIMUTH":333.7},"geometry":{"type":"LineString","coordinates":[[-71.92875824056598,41.0329525055882],[-71.9321805403375,41.03869550676137]]}},{"type":"Feature","properties":{"OBJECTID":3490,"TRANSECTID":3490,"TRANSORDER":3490,"BASELINEID":10,"LRR":-0.13,"LR2":0.34,"LSE":10.75,"LCI90":0.12,"AZIMUTH":333.7},"geometry":{"type":"LineString","coordinates":[[-71.92821650121299,41.033137592409034],[-71.93163876144294,41.038880608248085]]}},{"type":"Feature","properties":{"OBJECTID":3491,"TRANSECTID":3491,"TRANSORDER":3491,"BASELINEID":10,"LRR":-0.11,"LR2":0.26,"LSE":10.91,"LCI90":0.12,"AZIMUTH":333.7},"geometry":{"type":"LineString","coordinates":[[-71.9276747589454,41.03332267656712],[-71.9310969796342,41.03906570703742]]}},{"type":"Feature","properties":{"OBJECTID":3492,"TRANSECTID":3492,"TRANSORDER":3492,"BASELINEID":10,"LRR":-0.11,"LR2":0.21,"LSE":12.54,"LCI90":0.14,"AZIMUTH":333.7},"geometry":{"type":"LineString","coordinates":[[-71.92713301376168,41.03350775809661],[-71.93055519490811,41.039250803197845]]}},{"type":"Feature","properties":{"OBJECTID":3493,"TRANSECTID":3493,"TRANSORDER":3493,"BASELINEID":10,"LRR":-0.08,"LR2":0.11,"LSE":12.99,"LCI90":0.14,"AZIMUTH":333.7},"geometry":{"type":"LineString","coordinates":[[-71.92659126566504,41.033692836928914],[-71.9300134072679,41.03943589666074]]}},{"type":"Feature","properties":{"OBJECTID":3494,"TRANSECTID":3494,"TRANSORDER":3494,"BASELINEID":10,"LRR":-0.07,"LR2":0.12,"LSE":11.15,"LCI90":0.12,"AZIMUTH":333.7},"geometry":{"type":"LineString","coordinates":[[-71.9260495146523,41.03387791313255],[-71.92947161671195,41.03962098746043]]}},{"type":"Feature","properties":{"OBJECTID":3495,"TRANSECTID":3495,"TRANSORDER":3495,"BASELINEID":10,"LRR":-0.13,"LR2":0.39,"LSE":9.5,"LCI90":0.1,"AZIMUTH":333.7},"geometry":{"type":"LineString","coordinates":[[-71.9255077607267,41.03406298663893],[-71.92892982323875,41.03980607563108]]}},{"type":"Feature","properties":{"OBJECTID":3496,"TRANSECTID":3496,"TRANSORDER":3496,"BASELINEID":10,"LRR":-0.08,"LR2":0.16,"LSE":10.91,"LCI90":0.12,"AZIMUTH":333.7},"geometry":{"type":"LineString","coordinates":[[-71.92496600388506,41.0342480575165],[-71.9283880268515,41.03999116110406]]}},{"type":"Feature","properties":{"OBJECTID":3497,"TRANSECTID":3497,"TRANSORDER":3497,"BASELINEID":10,"LRR":0.0,"LR2":0.0,"LSE":11.98,"LCI90":0.13,"AZIMUTH":333.7},"geometry":{"type":"LineString","coordinates":[[-71.92442424413063,41.03443312569672],[-71.92784622754701,41.04017624394794]]}},{"type":"Feature","properties":{"OBJECTID":3498,"TRANSECTID":3498,"TRANSORDER":3498,"BASELINEID":10,"LRR":0.05,"LR2":0.04,"LSE":14.49,"LCI90":0.16,"AZIMUTH":333.7},"geometry":{"type":"LineString","coordinates":[[-71.92388248146185,41.03461819121376],[-71.92730442532851,41.04036132409408]]}},{"type":"Feature","properties":{"OBJECTID":3499,"TRANSECTID":3499,"TRANSORDER":3499,"BASELINEID":10,"LRR":0.02,"LR2":0.01,"LSE":15.32,"LCI90":0.17,"AZIMUTH":333.7},"geometry":{"type":"LineString","coordinates":[[-71.9233407158771,41.03480325410194],[-71.92676262019292,41.04054640161098]]}},{"type":"Feature","properties":{"OBJECTID":3500,"TRANSECTID":3500,"TRANSORDER":3500,"BASELINEID":10,"LRR":-0.02,"LR2":0.01,"LSE":13.78,"LCI90":0.15,"AZIMUTH":333.7},"geometry":{"type":"LineString","coordinates":[[-71.92279894737965,41.034988314292534],[-71.92622081214336,41.04073147643005]]}},{"type":"Feature","properties":{"OBJECTID":3501,"TRANSECTID":3501,"TRANSORDER":3501,"BASELINEID":10,"LRR":-0.04,"LR2":0.04,"LSE":12.73,"LCI90":0.14,"AZIMUTH":333.7},"geometry":{"type":"LineString","coordinates":[[-71.92225717596634,41.03517337185415],[-71.92567900117831,41.04091654858547]]}},{"type":"Feature","properties":{"OBJECTID":3502,"TRANSECTID":3502,"TRANSORDER":3502,"BASELINEID":10,"LRR":-0.09,"LR2":0.15,"LSE":12.41,"LCI90":0.14,"AZIMUTH":333.7},"geometry":{"type":"LineString","coordinates":[[-71.92171540164034,41.03535842671816],[-71.9251371872962,41.04110161811161]]}},{"type":"Feature","properties":{"OBJECTID":3389,"TRANSECTID":3389,"TRANSORDER":3389,"BASELINEID":10,"LRR":0.06,"LR2":0.06,"LSE":14.64,"LCI90":0.16,"AZIMUTH":333.7},"geometry":{"type":"LineString","coordinates":[[-71.9829174521778,41.01443038308748],[-71.98634369980006,41.02017191956085]]}},{"type":"Feature","properties":{"OBJECTID":3390,"TRANSECTID":3390,"TRANSORDER":3390,"BASELINEID":10,"LRR":0.01,"LR2":0.0,"LSE":15.3,"LCI90":0.18,"AZIMUTH":333.7},"geometry":{"type":"LineString","coordinates":[[-71.98237600442941,41.01461573598091],[-71.98580221263333,41.02035728711711]]}},{"type":"Feature","properties":{"OBJECTID":3391,"TRANSECTID":3391,"TRANSORDER":3391,"BASELINEID":10,"LRR":-0.08,"LR2":0.1,"LSE":13.74,"LCI90":0.15,"AZIMUTH":333.7},"geometry":{"type":"LineString","coordinates":[[-71.98183455376507,41.01480108618208],[-71.98526072254946,41.02054265198072]]}},{"type":"Feature","properties":{"OBJECTID":3392,"TRANSECTID":3392,"TRANSORDER":3392,"BASELINEID":10,"LRR":-0.12,"LR2":0.24,"LSE":12.65,"LCI90":0.14,"AZIMUTH":333.7},"geometry":{"type":"LineString","coordinates":[[-71.98129310018167,41.014986433759454],[-71.98471922954685,41.02072801418598]]}},{"type":"Feature","properties":{"OBJECTID":3393,"TRANSECTID":3393,"TRANSORDER":3393,"BASELINEID":10,"LRR":-0.17,"LR2":0.38,"LSE":13.0,"LCI90":0.14,"AZIMUTH":333.7},"geometry":{"type":"LineString","coordinates":[[-71.98075164368237,41.01517177864444],[-71.98417773362404,41.020913373767115]]}},{"type":"Feature","properties":{"OBJECTID":3394,"TRANSECTID":3394,"TRANSORDER":3394,"BASELINEID":10,"LRR":-0.18,"LR2":0.38,"LSE":14.07,"LCI90":0.15,"AZIMUTH":333.7},"geometry":{"type":"LineString","coordinates":[[-71.9802101842641,41.015357120905605],[-71.98363623478414,41.02109873065551]]}},{"type":"Feature","properties":{"OBJECTID":3395,"TRANSECTID":3395,"TRANSORDER":3395,"BASELINEID":10,"LRR":-0.18,"LR2":0.35,"LSE":14.63,"LCI90":0.16,"AZIMUTH":333.7},"geometry":{"type":"LineString","coordinates":[[-71.97966872193001,41.01554246047424],[-71.98309473302402,41.02128408491968]]}},{"type":"Feature","properties":{"OBJECTID":3396,"TRANSECTID":3396,"TRANSORDER":3396,"BASELINEID":10,"LRR":-0.18,"LR2":0.34,"LSE":15.47,"LCI90":0.17,"AZIMUTH":333.7},"geometry":{"type":"LineString","coordinates":[[-71.97912725667852,41.01572779738467],[-71.98255322834693,41.021469436491]]}},{"type":"Feature","properties":{"OBJECTID":3397,"TRANSECTID":3397,"TRANSORDER":3397,"BASELINEID":10,"LRR":-0.18,"LR2":0.34,"LSE":15.31,"LCI90":0.17,"AZIMUTH":333.7},"geometry":{"type":"LineString","coordinates":[[-71.97858578850817,41.01591313167107],[-71.9820117207513,41.02165478540369]]}},{"type":"Feature","properties":{"OBJECTID":3398,"TRANSECTID":3398,"TRANSORDER":3398,"BASELINEID":10,"LRR":-0.16,"LR2":0.28,"LSE":15.73,"LCI90":0.17,"AZIMUTH":333.7},"geometry":{"type":"LineString","coordinates":[[-71.97804431742205,41.01609846326487],[-71.98147021023556,41.02184013169208]]}},{"type":"Feature","properties":{"OBJECTID":3399,"TRANSECTID":3399,"TRANSORDER":3399,"BASELINEID":10,"LRR":-0.17,"LR2":0.32,"LSE":14.98,"LCI90":0.16,"AZIMUTH":333.7},"geometry":{"type":"LineString","coordinates":[[-71.9775028434171,41.01628379223454],[-71.98092869680289,41.02202547528742]]}},{"type":"Feature","properties":{"OBJECTID":3400,"TRANSECTID":3400,"TRANSORDER":3400,"BASELINEID":10,"LRR":-0.2,"LR2":0.4,"LSE":14.64,"LCI90":0.16,"AZIMUTH":333.7},"geometry":{"type":"LineString","coordinates":[[-71.97696136649645,41.01646911851151],[-71.9803871804502,41.02221081625835]]}},{"type":"Feature","properties":{"OBJECTID":3401,"TRANSECTID":3401,"TRANSORDER":3401,"BASELINEID":10,"LRR":-0.2,"LR2":0.42,"LSE":14.14,"LCI90":0.15,"AZIMUTH":333.7},"geometry":{"type":"LineString","coordinates":[[-71.97641988665858,41.01665444212993],[-71.97984566118062,41.022396154536146]]}},{"type":"Feature","properties":{"OBJECTID":3402,"TRANSECTID":3402,"TRANSORDER":3402,"BASELINEID":10,"LRR":-0.18,"LR2":0.38,"LSE":14.07,"LCI90":0.15,"AZIMUTH":333.7},"geometry":{"type":"LineString","coordinates":[[-71.97587840390196,41.016839763124196],[-71.97930413899108,41.02258149018945]]}},{"type":"Feature","properties":{"OBJECTID":3403,"TRANSECTID":3403,"TRANSORDER":3403,"BASELINEID":10,"LRR":-0.18,"LR2":0.4,"LSE":13.76,"LCI90":0.15,"AZIMUTH":333.7},"geometry":{"type":"LineString","coordinates":[[-71.97533691822974,41.017025081425516],[-71.9787626138847,41.02276682314952]]}},{"type":"Feature","properties":{"OBJECTID":3404,"TRANSECTID":3404,"TRANSORDER":3404,"BASELINEID":10,"LRR":-0.19,"LR2":0.44,"LSE":13.1,"LCI90":0.14,"AZIMUTH":333.7},"geometry":{"type":"LineString","coordinates":[[-71.97479542963882,41.01721039710255],[-71.97822108586001,41.02295215345063]]}},{"type":"Feature","properties":{"OBJECTID":3405,"TRANSECTID":3405,"TRANSORDER":3405,"BASELINEID":10,"LRR":-0.21,"LR2":0.52,"LSE":11.94,"LCI90":0.13,"AZIMUTH":333.7},"geometry":{"type":"LineString","coordinates":[[-71.97425393813238,41.01739571008658],[-71.97767955491541,41.0231374811271]]}},{"type":"Feature","properties":{"OBJECTID":3406,"TRANSECTID":3406,"TRANSORDER":3406,"BASELINEID":10,"LRR":-0.24,"LR2":0.57,"LSE":12.49,"LCI90":0.14,"AZIMUTH":333.7},"geometry":{"type":"LineString","coordinates":[[-71.97371244370729,41.01758102044624],[-71.9771380210541,41.023322806110194]]}},{"type":"Feature","properties":{"OBJECTID":3407,"TRANSECTID":3407,"TRANSORDER":3407,"BASELINEID":10,"LRR":-0.21,"LR2":0.54,"LSE":11.5,"LCI90":0.13,"AZIMUTH":333.7},"geometry":{"type":"LineString","coordinates":[[-71.97317094641201,41.01776632811394],[-71.97659648427297,41.023508128468556]]}},{"type":"Feature","properties":{"OBJECTID":3408,"TRANSECTID":3408,"TRANSORDER":3408,"BASELINEID":10,"LRR":-0.15,"LR2":0.39,"LSE":11.5,"LCI90":0.13,"AZIMUTH":333.7},"geometry":{"type":"LineString","coordinates":[[-71.97262944615443,41.01795163312168],[-71.97605494457517,41.023693448133415]]}},{"type":"Feature","properties":{"OBJECTID":3409,"TRANSECTID":3409,"TRANSORDER":3409,"BASELINEID":10,"LRR":-0.14,"LR2":0.31,"LSE":12.75,"LCI90":0.14,"AZIMUTH":333.7},"geometry":{"type":"LineString","coordinates":[[-71.97208794297829,41.01813693550483],[-71.97551340195758,41.02387876517346]]}},{"type":"Feature","properties":{"OBJECTID":3410,"TRANSECTID":3410,"TRANSORDER":3410,"BASELINEID":10,"LRR":-0.15,"LR2":0.33,"LSE":13.04,"LCI90":0.14,"AZIMUTH":333.7},"geometry":{"type":"LineString","coordinates":[[-71.97154643688675,41.018322235194724],[-71.97497185642341,41.0240640795199]]}},{"type":"Feature","properties":{"OBJECTID":3411,"TRANSECTID":3411,"TRANSORDER":3411,"BASELINEID":10,"LRR":-0.16,"LR2":0.32,"LSE":14.34,"LCI90":0.16,"AZIMUTH":333.7},"geometry":{"type":"LineString","coordinates":[[-71.97100492787675,41.01850753226002],[-71.97443030797108,41.02424939120713]]}},{"type":"Feature","properties":{"OBJECTID":3412,"TRANSECTID":3412,"TRANSORDER":3412,"BASELINEID":10,"LRR":-0.16,"LR2":0.27,"LSE":15.68,"LCI90":0.17,"AZIMUTH":333.7},"geometry":{"type":"LineString","coordinates":[[-71.97046341595136,41.01869282663198],[-71.9738887566444,41.02443470027049]]}},{"type":"Feature","properties":{"OBJECTID":3413,"TRANSECTID":3413,"TRANSORDER":3413,"BASELINEID":10,"LRR":-0.15,"LR2":0.24,"LSE":16.72,"LCI90":0.18,"AZIMUTH":333.7},"geometry":{"type":"LineString","coordinates":[[-71.96992190110757,41.01887811837919],[-71.97334720235588,41.02462000663901]]}},{"type":"Feature","properties":{"OBJECTID":3414,"TRANSECTID":3414,"TRANSORDER":3414,"BASELINEID":10,"LRR":-0.12,"LR2":0.14,"LSE":18.0,"LCI90":0.2,"AZIMUTH":333.7},"geometry":{"type":"LineString","coordinates":[[-71.96938038334852,41.01906340743295],[-71.9728056451477,41.02480531038237]]}},{"type":"Feature","properties":{"OBJECTID":3415,"TRANSECTID":3415,"TRANSORDER":3415,"BASELINEID":10,"LRR":-0.09,"LR2":0.07,"LSE":19.13,"LCI90":0.21,"AZIMUTH":333.7},"geometry":{"type":"LineString","coordinates":[[-71.96883886267264,41.019248693827606],[-71.9722640850231,41.024990611432024]]}},{"type":"Feature","properties":{"OBJECTID":3416,"TRANSECTID":3416,"TRANSORDER":3416,"BASELINEID":10,"LRR":-0.08,"LR2":0.08,"LSE":17.0,"LCI90":0.19,"AZIMUTH":333.7},"geometry":{"type":"LineString","coordinates":[[-71.96829733907842,41.019433977597295],[-71.97172252197893,41.0251759098564]]}},{"type":"Feature","properties":{"OBJECTID":3417,"TRANSECTID":3417,"TRANSORDER":3417,"BASELINEID":10,"LRR":-0.09,"LR2":0.1,"LSE":16.34,"LCI90":0.18,"AZIMUTH":333.7},"geometry":{"type":"LineString","coordinates":[[-71.96775581256901,41.01961925867349],[-71.97118095601836,41.02536120558693]]}},{"type":"Feature","properties":{"OBJECTID":3418,"TRANSECTID":3418,"TRANSORDER":3418,"BASELINEID":10,"LRR":-0.05,"LR2":0.03,"LSE":18.27,"LCI90":0.2,"AZIMUTH":333.7},"geometry":{"type":"LineString","coordinates":[[-71.96721428314132,41.019804537124635],[-71.97063938713987,41.02554649865783]]}},{"type":"Feature","properties":{"OBJECTID":3419,"TRANSECTID":3419,"TRANSORDER":3419,"BASELINEID":10,"LRR":-0.04,"LR2":0.02,"LSE":18.06,"LCI90":0.2,"AZIMUTH":333.7},"geometry":{"type":"LineString","coordinates":[[-71.9666727507985,41.01998981288217],[-71.97009781534187,41.02573178910343]]}},{"type":"Feature","properties":{"OBJECTID":3420,"TRANSECTID":3420,"TRANSORDER":3420,"BASELINEID":10,"LRR":-0.07,"LR2":0.06,"LSE":18.24,"LCI90":0.2,"AZIMUTH":333.7},"geometry":{"type":"LineString","coordinates":[[-71.96613121553898,41.020175085980256],[-71.96955624062757,41.02591707685496]]}},{"type":"Feature","properties":{"OBJECTID":3421,"TRANSECTID":3421,"TRANSORDER":3421,"BASELINEID":10,"LRR":-0.1,"LR2":0.11,"LSE":17.28,"LCI90":0.19,"AZIMUTH":333.7},"geometry":{"type":"LineString","coordinates":[[-71.9655896773613,41.02036035645326],[-71.96901466299387,41.026102361981074]]}},{"type":"Feature","properties":{"OBJECTID":3422,"TRANSECTID":3422,"TRANSORDER":3422,"BASELINEID":10,"LRR":-0.14,"LR2":0.2,"LSE":16.83,"LCI90":0.18,"AZIMUTH":333.7},"geometry":{"type":"LineString","coordinates":[[-71.96504813626858,41.020545624232405],[-71.96847308244386,41.026287644413046]]}},{"type":"Feature","properties":{"OBJECTID":3423,"TRANSECTID":3423,"TRANSORDER":3423,"BASELINEID":10,"LRR":-0.14,"LR2":0.2,"LSE":16.55,"LCI90":0.18,"AZIMUTH":333.7},"geometry":{"type":"LineString","coordinates":[[-71.96450659225769,41.020730889386364],[-71.96793149897611,41.02647292418514]]}},{"type":"Feature","properties":{"OBJECTID":3424,"TRANSECTID":3424,"TRANSORDER":3424,"BASELINEID":10,"LRR":-0.13,"LR2":0.2,"LSE":16.21,"LCI90":0.18,"AZIMUTH":333.7},"geometry":{"type":"LineString","coordinates":[[-71.96396504533185,41.02091615184639],[-71.96738991258901,41.0266582013317]]}},{"type":"Feature","properties":{"OBJECTID":3425,"TRANSECTID":3425,"TRANSORDER":3425,"BASELINEID":10,"LRR":-0.09,"LR2":0.12,"LSE":15.8,"LCI90":0.17,"AZIMUTH":333.7},"geometry":{"type":"LineString","coordinates":[[-71.96342349548792,41.021101411681116],[-71.96684832328576,41.02684347578395]]}},{"type":"Feature","properties":{"OBJECTID":3426,"TRANSECTID":3426,"TRANSORDER":3426,"BASELINEID":10,"LRR":-0.07,"LR2":0.06,"LSE":16.02,"LCI90":0.17,"AZIMUTH":333.7},"geometry":{"type":"LineString","coordinates":[[-71.96288194272906,41.021286668821816],[-71.96630673106324,41.02702874761056]]}},{"type":"Feature","properties":{"OBJECTID":3427,"TRANSECTID":3427,"TRANSORDER":3427,"BASELINEID":10,"LRR":-0.07,"LR2":0.07,"LSE":16.11,"LCI90":0.18,"AZIMUTH":333.7},"geometry":{"type":"LineString","coordinates":[[-71.96234038705374,41.02147192330277],[-71.9657651359246,41.02721401674276]]}},{"type":"Feature","properties":{"OBJECTID":3428,"TRANSECTID":3428,"TRANSORDER":3428,"BASELINEID":10,"LRR":-0.07,"LR2":0.06,"LSE":16.11,"LCI90":0.18,"AZIMUTH":333.7},"geometry":{"type":"LineString","coordinates":[[-71.9617988284604,41.02165717515831],[-71.96522353786673,41.027399283249224]]}},{"type":"Feature","properties":{"OBJECTID":3429,"TRANSECTID":3429,"TRANSORDER":3429,"BASELINEID":10,"LRR":-0.05,"LR2":0.03,"LSE":16.09,"LCI90":0.18,"AZIMUTH":333.7},"geometry":{"type":"LineString","coordinates":[[-71.96125726695227,41.02184242431968],[-71.96468193689284,41.0275845470612]]}},{"type":"Feature","properties":{"OBJECTID":3430,"TRANSECTID":3430,"TRANSORDER":3430,"BASELINEID":10,"LRR":-0.03,"LR2":0.01,"LSE":15.97,"LCI90":0.17,"AZIMUTH":333.7},"geometry":{"type":"LineString","coordinates":[[-71.96071570252617,41.02202767085549],[-71.96414033300134,41.027769808213]]}},{"type":"Feature","properties":{"OBJECTID":3431,"TRANSECTID":3431,"TRANSORDER":3431,"BASELINEID":10,"LRR":-0.03,"LR2":0.02,"LSE":14.65,"LCI90":0.16,"AZIMUTH":333.7},"geometry":{"type":"LineString","coordinates":[[-71.96017413518533,41.02221291469703],[-71.96359872619074,41.02795506673886]]}},{"type":"Feature","properties":{"OBJECTID":3432,"TRANSECTID":3432,"TRANSORDER":3432,"BASELINEID":10,"LRR":-0.02,"LR2":0.01,"LSE":15.26,"LCI90":0.17,"AZIMUTH":333.7},"geometry":{"type":"LineString","coordinates":[[-71.95963256492658,41.022398155912946],[-71.96305711646417,41.028140322570145]]}},{"type":"Feature","properties":{"OBJECTID":3433,"TRANSECTID":3433,"TRANSORDER":3433,"BASELINEID":10,"LRR":-0.02,"LR2":0.0,"LSE":16.09,"LCI90":0.18,"AZIMUTH":333.7},"geometry":{"type":"LineString","coordinates":[[-71.95909099175314,41.022583394434506],[-71.96251550381852,41.02832557577539]]}},{"type":"Feature","properties":{"OBJECTID":3434,"TRANSECTID":3434,"TRANSORDER":3434,"BASELINEID":10,"LRR":0.05,"LR2":0.03,"LSE":18.35,"LCI90":0.2,"AZIMUTH":333.7},"geometry":{"type":"LineString","coordinates":[[-71.95854941566344,41.02276863029601],[-71.96197388825699,41.02851082628596]]}},{"type":"Feature","properties":{"OBJECTID":3435,"TRANSECTID":3435,"TRANSORDER":3435,"BASELINEID":10,"LRR":0.07,"LR2":0.04,"LSE":19.35,"LCI90":0.21,"AZIMUTH":333.7},"geometry":{"type":"LineString","coordinates":[[-71.95800783665594,41.022953863531676],[-71.96143226977642,41.028696074170384]]}},{"type":"Feature","properties":{"OBJECTID":3436,"TRANSECTID":3436,"TRANSORDER":3436,"BASELINEID":10,"LRR":0.06,"LR2":0.03,"LSE":20.11,"LCI90":0.22,"AZIMUTH":333.7},"geometry":{"type":"LineString","coordinates":[[-71.95746625473379,41.023139094072896],[-71.96089064838003,41.02888131936005]]}},{"type":"Feature","properties":{"OBJECTID":3437,"TRANSECTID":3437,"TRANSORDER":3437,"BASELINEID":10,"LRR":0.08,"LR2":0.05,"LSE":21.07,"LCI90":0.23,"AZIMUTH":333.7},"geometry":{"type":"LineString","coordinates":[[-71.95692466989394,41.0233243219882],[-71.96034902406628,41.02906656188916]]}},{"type":"Feature","properties":{"OBJECTID":3438,"TRANSECTID":3438,"TRANSORDER":3438,"BASELINEID":10,"LRR":0.08,"LR2":0.04,"LSE":22.39,"LCI90":0.24,"AZIMUTH":333.7},"geometry":{"type":"LineString","coordinates":[[-71.9563830821395,41.02350954720893],[-71.95980739683354,41.029251801792036]]}},{"type":"Feature","properties":{"OBJECTID":3439,"TRANSECTID":3439,"TRANSORDER":3439,"BASELINEID":10,"LRR":0.08,"LR2":0.04,"LSE":22.12,"LCI90":0.24,"AZIMUTH":333.7},"geometry":{"type":"LineString","coordinates":[[-71.95584149146899,41.023694769769335],[-71.95926576668512,41.02943703899994]]}},{"type":"Feature","properties":{"OBJECTID":3440,"TRANSECTID":3440,"TRANSORDER":3440,"BASELINEID":10,"LRR":0.09,"LR2":0.05,"LSE":22.25,"LCI90":0.24,"AZIMUTH":333.7},"geometry":{"type":"LineString","coordinates":[[-71.95529989788079,41.023879989703715],[-71.95872413361779,41.02962227358151]]}},{"type":"Feature","properties":{"OBJECTID":3441,"TRANSECTID":3441,"TRANSORDER":3441,"BASELINEID":10,"LRR":0.05,"LR2":0.02,"LSE":20.86,"LCI90":0.23,"AZIMUTH":333.7},"geometry":{"type":"LineString","coordinates":[[-71.95475830137815,41.02406520694336],[-71.9581824976348,41.029807505468014]]}},{"type":"Feature","properties":{"OBJECTID":3442,"TRANSECTID":3442,"TRANSORDER":3442,"BASELINEID":10,"LRR":0.03,"LR2":0.01,"LSE":19.88,"LCI90":0.22,"AZIMUTH":333.7},"geometry":{"type":"LineString","coordinates":[[-71.95421670195789,41.02425042155687],[-71.95764085873455,41.029992734693764]]}},{"type":"Feature","properties":{"OBJECTID":3503,"TRANSECTID":3503,"TRANSORDER":3503,"BASELINEID":10,"LRR":-0.13,"LR2":0.29,"LSE":12.18,"LCI90":0.13,"AZIMUTH":333.7},"geometry":{"type":"LineString","coordinates":[[-71.92117362440013,41.035543478918754],[-71.92459537050024,41.041286684939706]]}},{"type":"Feature","properties":{"OBJECTID":3504,"TRANSECTID":3504,"TRANSORDER":3504,"BASELINEID":10,"LRR":-0.14,"LR2":0.3,"LSE":12.83,"LCI90":0.14,"AZIMUTH":333.7},"geometry":{"type":"LineString","coordinates":[[-71.92063184424414,41.03572852849026],[-71.92405355078728,41.04147174913839]]}},{"type":"Feature","properties":{"OBJECTID":3505,"TRANSECTID":3505,"TRANSORDER":3505,"BASELINEID":10,"LRR":-0.15,"LR2":0.28,"LSE":14.69,"LCI90":0.16,"AZIMUTH":333.7},"geometry":{"type":"LineString","coordinates":[[-71.92009006117554,41.03591357536393],[-71.92351172816053,41.04165681063895]]}},{"type":"Feature","properties":{"OBJECTID":3506,"TRANSECTID":3506,"TRANSORDER":3506,"BASELINEID":10,"LRR":-0.19,"LR2":0.31,"LSE":17.19,"LCI90":0.19,"AZIMUTH":333.7},"geometry":{"type":"LineString","coordinates":[[-71.91954827519123,41.036098619608424],[-71.9229699026184,41.0418418694757]]}},{"type":"Feature","properties":{"OBJECTID":3507,"TRANSECTID":3507,"TRANSORDER":3507,"BASELINEID":10,"LRR":-0.26,"LR2":0.42,"LSE":18.3,"LCI90":0.2,"AZIMUTH":333.7},"geometry":{"type":"LineString","coordinates":[[-71.91900648629442,41.03628366115498],[-71.9224280741594,41.042026925682805]]}},{"type":"Feature","properties":{"OBJECTID":3508,"TRANSECTID":3508,"TRANSORDER":3508,"BASELINEID":10,"LRR":-0.26,"LR2":0.39,"LSE":19.73,"LCI90":0.22,"AZIMUTH":333.7},"geometry":{"type":"LineString","coordinates":[[-71.91846469448194,41.03646870007228],[-71.92129856782584,41.04234098143336]]}},{"type":"Feature","properties":{"OBJECTID":3509,"TRANSECTID":3509,"TRANSORDER":3509,"BASELINEID":10,"LRR":-0.33,"LR2":0.47,"LSE":21.23,"LCI90":0.23,"AZIMUTH":345.74},"geometry":{"type":"LineString","coordinates":[[-71.91790751705734,41.03661624532815],[-71.92028932864535,41.042699350549846]]}},{"type":"Feature","properties":{"OBJECTID":3510,"TRANSECTID":3510,"TRANSORDER":3510,"BASELINEID":10,"LRR":-0.36,"LR2":0.5,"LSE":21.52,"LCI90":0.23,"AZIMUTH":348.23},"geometry":{"type":"LineString","coordinates":[[-71.91732262617077,41.03669624855262],[-71.9189060007553,41.04289355715194]]}},{"type":"Feature","properties":{"OBJECTID":3511,"TRANSECTID":3511,"TRANSORDER":3511,"BASELINEID":10,"LRR":-0.35,"LR2":0.51,"LSE":20.7,"LCI90":0.23,"AZIMUTH":356.18},"geometry":{"type":"LineString","coordinates":[[-71.9167326093353,41.03673942556796],[-71.91770148802983,41.043073266102304]]}},{"type":"Feature","properties":{"OBJECTID":3512,"TRANSECTID":3512,"TRANSORDER":3512,"BASELINEID":10,"LRR":-0.31,"LR2":0.47,"LSE":19.63,"LCI90":0.21,"AZIMUTH":356.18},"geometry":{"type":"LineString","coordinates":[[-71.91613854156321,41.03675349391934],[-71.91639863855393,41.043050926402344]]}},{"type":"Feature","properties":{"OBJECTID":3513,"TRANSECTID":3513,"TRANSORDER":3513,"BASELINEID":10,"LRR":-0.3,"LR2":0.45,"LSE":19.87,"LCI90":0.22,"AZIMUTH":356.18},"geometry":{"type":"LineString","coordinates":[[-71.91554447372522,41.03676755922887],[-71.91580451388762,41.043064991002566]]}},{"type":"Feature","properties":{"OBJECTID":3514,"TRANSECTID":3514,"TRANSORDER":3514,"BASELINEID":10,"LRR":-0.3,"LR2":0.37,"LSE":23.77,"LCI90":0.26,"AZIMUTH":356.18},"geometry":{"type":"LineString","coordinates":[[-71.91495040582309,41.03678162146226],[-71.91521038915546,41.04307905256031]]}},{"type":"Feature","properties":{"OBJECTID":3515,"TRANSECTID":3515,"TRANSORDER":3515,"BASELINEID":10,"LRR":-0.31,"LR2":0.37,"LSE":24.29,"LCI90":0.26,"AZIMUTH":356.18},"geometry":{"type":"LineString","coordinates":[[-71.91435633785852,41.03679568058517],[-71.91461626435917,41.04309311104119]]}},{"type":"Feature","properties":{"OBJECTID":3516,"TRANSECTID":3516,"TRANSORDER":3516,"BASELINEID":10,"LRR":-0.27,"LR2":0.44,"LSE":18.23,"LCI90":0.2,"AZIMUTH":356.18},"geometry":{"type":"LineString","coordinates":[[-71.91376226982835,41.03680973666625],[-71.9140221395004,41.04310716641092]]}},{"type":"Feature","properties":{"OBJECTID":3517,"TRANSECTID":3517,"TRANSORDER":3517,"BASELINEID":10,"LRR":-0.24,"LR2":0.48,"LSE":15.17,"LCI90":0.17,"AZIMUTH":356.18},"geometry":{"type":"LineString","coordinates":[[-71.91316820173431,41.0368237896712],[-71.91342801457611,41.043121218738115]]}},{"type":"Feature","properties":{"OBJECTID":3518,"TRANSECTID":3518,"TRANSORDER":3518,"BASELINEID":10,"LRR":-0.23,"LR2":0.39,"LSE":17.04,"LCI90":0.19,"AZIMUTH":356.18},"geometry":{"type":"LineString","coordinates":[[-71.91257413357808,41.03683783956563],[-71.91283388958789,41.04313526798849]]}},{"type":"Feature","properties":{"OBJECTID":3519,"TRANSECTID":3519,"TRANSORDER":3519,"BASELINEID":10,"LRR":-0.33,"LR2":0.57,"LSE":17.22,"LCI90":0.19,"AZIMUTH":356.18},"geometry":{"type":"LineString","coordinates":[[-71.91198006535656,41.0368518864182],[-71.91223976453752,41.043149314127696]]}},{"type":"Feature","properties":{"OBJECTID":3520,"TRANSECTID":3520,"TRANSORDER":3520,"BASELINEID":10,"LRR":-0.4,"LR2":0.66,"LSE":17.11,"LCI90":0.19,"AZIMUTH":356.18},"geometry":{"type":"LineString","coordinates":[[-71.9113859970714,41.036865930194594],[-71.91164563942182,41.04316335722443]]}},{"type":"Feature","properties":{"OBJECTID":3521,"TRANSECTID":3521,"TRANSORDER":3521,"BASELINEID":10,"LRR":-0.45,"LR2":0.72,"LSE":16.83,"LCI90":0.18,"AZIMUTH":356.18},"geometry":{"type":"LineString","coordinates":[[-71.91079192872438,41.03687997086052],[-71.91105151424257,41.04317739724425]]}},{"type":"Feature","properties":{"OBJECTID":3522,"TRANSECTID":3522,"TRANSORDER":3522,"BASELINEID":10,"LRR":-0.61,"LR2":0.84,"LSE":16.13,"LCI90":0.18,"AZIMUTH":356.18},"geometry":{"type":"LineString","coordinates":[[-71.91019786031228,41.036894008484595],[-71.91045738900138,41.04319143415294]]}},{"type":"Feature","properties":{"OBJECTID":3523,"TRANSECTID":3523,"TRANSORDER":3523,"BASELINEID":10,"LRR":-0.48,"LR2":0.79,"LSE":15.02,"LCI90":0.16,"AZIMUTH":356.18},"geometry":{"type":"LineString","coordinates":[[-71.9096037918369,41.0369080430325],[-71.90986326369517,41.04320546801905]]}},{"type":"Feature","properties":{"OBJECTID":3524,"TRANSECTID":3524,"TRANSORDER":3524,"BASELINEID":10,"LRR":-0.36,"LR2":0.7,"LSE":14.3,"LCI90":0.16,"AZIMUTH":356.18},"geometry":{"type":"LineString","coordinates":[[-71.90900972329983,41.03692207446989],[-71.90926913832566,41.04321949880834]]}},{"type":"Feature","properties":{"OBJECTID":3525,"TRANSECTID":3525,"TRANSORDER":3525,"BASELINEID":10,"LRR":-0.35,"LR2":0.67,"LSE":14.85,"LCI90":0.16,"AZIMUTH":356.18},"geometry":{"type":"LineString","coordinates":[[-71.90841565469806,41.03693610286541],[-71.90867501289449,41.04323352648643]]}},{"type":"Feature","properties":{"OBJECTID":3526,"TRANSECTID":3526,"TRANSORDER":3526,"BASELINEID":10,"LRR":-0.38,"LR2":0.69,"LSE":15.17,"LCI90":0.17,"AZIMUTH":356.18},"geometry":{"type":"LineString","coordinates":[[-71.90782158603318,41.03695012818474],[-71.9080808873986,41.04324755112204]]}},{"type":"Feature","properties":{"OBJECTID":3527,"TRANSECTID":3527,"TRANSORDER":3527,"BASELINEID":10,"LRR":-0.39,"LR2":0.72,"LSE":14.86,"LCI90":0.16,"AZIMUTH":356.18},"geometry":{"type":"LineString","coordinates":[[-71.90722751726166,41.03696415039235],[-71.90748676183964,41.043261572680734]]}},{"type":"Feature","properties":{"OBJECTID":3528,"TRANSECTID":3528,"TRANSORDER":3528,"BASELINEID":10,"LRR":-0.43,"LR2":0.74,"LSE":15.43,"LCI90":0.17,"AZIMUTH":356.18},"geometry":{"type":"LineString","coordinates":[[-71.90663344847096,41.036978169559305],[-71.90689263621935,41.04327559112825]]}},{"type":"Feature","properties":{"OBJECTID":3529,"TRANSECTID":3529,"TRANSORDER":3529,"BASELINEID":10,"LRR":-0.43,"LR2":0.78,"LSE":13.5,"LCI90":0.15,"AZIMUTH":356.18},"geometry":{"type":"LineString","coordinates":[[-71.90603937961747,41.03699218565011],[-71.90629851053455,41.04328960653319]]}},{"type":"Feature","properties":{"OBJECTID":3530,"TRANSECTID":3530,"TRANSORDER":3530,"BASELINEID":10,"LRR":-0.38,"LR2":0.78,"LSE":11.96,"LCI90":0.13,"AZIMUTH":356.18},"geometry":{"type":"LineString","coordinates":[[-71.9054453107029,41.03700619863036],[-71.90570438478703,41.0433036188613]]}},{"type":"Feature","properties":{"OBJECTID":3531,"TRANSECTID":3531,"TRANSORDER":3531,"BASELINEID":10,"LRR":-0.32,"LR2":0.72,"LSE":12.09,"LCI90":0.13,"AZIMUTH":356.18},"geometry":{"type":"LineString","coordinates":[[-71.90485124172415,41.03702020856872],[-71.90511025897837,41.04331762807821]]}},{"type":"Feature","properties":{"OBJECTID":3532,"TRANSECTID":3532,"TRANSORDER":3532,"BASELINEID":10,"LRR":-0.28,"LR2":0.67,"LSE":11.94,"LCI90":0.13,"AZIMUTH":356.18},"geometry":{"type":"LineString","coordinates":[[-71.90425717268283,41.037034215430886],[-71.90451613310557,41.043331634252596]]}},{"type":"Feature","properties":{"OBJECTID":3533,"TRANSECTID":3533,"TRANSORDER":3533,"BASELINEID":10,"LRR":-0.21,"LR2":0.52,"LSE":12.36,"LCI90":0.13,"AZIMUTH":356.18},"geometry":{"type":"LineString","coordinates":[[-71.90366310358077,41.03704821918253],[-71.90392200717022,41.04334563735005]]}},{"type":"Feature","properties":{"OBJECTID":3535,"TRANSECTID":3535,"TRANSORDER":3535,"BASELINEID":10,"LRR":-0.16,"LR2":0.41,"LSE":11.35,"LCI90":0.12,"AZIMUTH":352.01},"geometry":{"type":"LineString","coordinates":[[-71.90247496518649,41.037076217525865],[-71.90392990309917,41.04314693683031]]}},{"type":"Feature","properties":{"OBJECTID":3537,"TRANSECTID":3537,"TRANSORDER":3537,"BASELINEID":10,"LRR":-0.15,"LR2":0.4,"LSE":11.33,"LCI90":0.12,"AZIMUTH":330.08},"geometry":{"type":"LineString","coordinates":[[-71.90140116391927,41.03743105234358],[-71.90403518334324,41.04307269607334]]}},{"type":"Feature","properties":{"OBJECTID":3539,"TRANSECTID":3539,"TRANSORDER":3539,"BASELINEID":10,"LRR":-0.22,"LR2":0.51,"LSE":12.9,"LCI90":0.14,"AZIMUTH":330.08},"geometry":{"type":"LineString","coordinates":[[-71.9003505056951,41.03785206839265],[-71.90424305989922,41.04342072081802]]}},{"type":"Feature","properties":{"OBJECTID":3540,"TRANSECTID":3540,"TRANSORDER":3540,"BASELINEID":10,"LRR":-0.4,"LR2":0.71,"LSE":15.42,"LCI90":0.17,"AZIMUTH":330.08},"geometry":{"type":"LineString","coordinates":[[-71.89982517173621,41.038062572648464],[-71.90371769176106,41.043631241536794]]}},{"type":"Feature","properties":{"OBJECTID":3541,"TRANSECTID":3541,"TRANSORDER":3541,"BASELINEID":10,"LRR":-0.45,"LR2":0.71,"LSE":17.19,"LCI90":0.19,"AZIMUTH":330.08},"geometry":{"type":"LineString","coordinates":[[-71.89929983448624,41.038273074378694],[-71.90319232042118,41.04384175973222]]}},{"type":"Feature","properties":{"OBJECTID":3542,"TRANSECTID":3542,"TRANSORDER":3542,"BASELINEID":10,"LRR":-0.35,"LR2":0.65,"LSE":15.34,"LCI90":0.17,"AZIMUTH":330.08},"geometry":{"type":"LineString","coordinates":[[-71.89877449403748,41.03848357355138],[-71.90266694579057,41.04405227536745]]}},{"type":"Feature","properties":{"OBJECTID":3543,"TRANSECTID":3543,"TRANSORDER":3543,"BASELINEID":10,"LRR":-0.3,"LR2":0.52,"LSE":17.06,"LCI90":0.19,"AZIMUTH":330.08},"geometry":{"type":"LineString","coordinates":[[-71.89824915029602,41.038694070232715],[-71.90214156795669,41.044262788513485]]}},{"type":"Feature","properties":{"OBJECTID":3544,"TRANSECTID":3544,"TRANSORDER":3544,"BASELINEID":10,"LRR":-0.26,"LR2":0.41,"LSE":18.99,"LCI90":0.21,"AZIMUTH":330.08},"geometry":{"type":"LineString","coordinates":[[-71.89772380330892,41.0389045643895],[-71.90161618683047,41.04447329913358]]}},{"type":"Feature","properties":{"OBJECTID":3545,"TRANSECTID":3545,"TRANSORDER":3545,"BASELINEID":10,"LRR":-0.31,"LR2":0.48,"LSE":19.31,"LCI90":0.21,"AZIMUTH":330.08},"geometry":{"type":"LineString","coordinates":[[-71.89719845312301,41.03911505598861],[-71.90109080245732,41.04468380722888]]}},{"type":"Feature","properties":{"OBJECTID":3546,"TRANSECTID":3546,"TRANSORDER":3546,"BASELINEID":10,"LRR":-0.38,"LR2":0.57,"LSE":19.8,"LCI90":0.22,"AZIMUTH":330.08},"geometry":{"type":"LineString","coordinates":[[-71.89667309964447,41.039325545096155],[-71.90056541488411,41.04489431276623]]}},{"type":"Feature","properties":{"OBJECTID":3547,"TRANSECTID":3547,"TRANSORDER":3547,"BASELINEID":10,"LRR":-0.36,"LR2":0.67,"LSE":15.21,"LCI90":0.17,"AZIMUTH":330.08},"geometry":{"type":"LineString","coordinates":[[-71.89614774296558,41.03953603168028],[-71.90004002401704,41.04510481581173]]}},{"type":"Feature","properties":{"OBJECTID":3548,"TRANSECTID":3548,"TRANSORDER":3548,"BASELINEID":10,"LRR":-0.28,"LR2":0.67,"LSE":11.9,"LCI90":0.13,"AZIMUTH":330.08},"geometry":{"type":"LineString","coordinates":[[-71.89562238299735,41.03974651570408],[-71.89951462994834,41.04531531633353]]}},{"type":"Feature","properties":{"OBJECTID":3549,"TRANSECTID":3549,"TRANSORDER":3549,"BASELINEID":10,"LRR":-0.29,"LR2":0.72,"LSE":10.96,"LCI90":0.12,"AZIMUTH":330.08},"geometry":{"type":"LineString","coordinates":[[-71.89509701982712,41.03995699723864],[-71.89898923258903,41.04552581429477]]}},{"type":"Feature","properties":{"OBJECTID":3550,"TRANSECTID":3550,"TRANSORDER":3550,"BASELINEID":10,"LRR":-0.18,"LR2":0.38,"LSE":13.98,"LCI90":0.15,"AZIMUTH":330.08},"geometry":{"type":"LineString","coordinates":[[-71.89457165336599,41.04016747624712],[-71.8984638320265,41.04573630976653]]}},{"type":"Feature","properties":{"OBJECTID":3551,"TRANSECTID":3551,"TRANSORDER":3551,"BASELINEID":10,"LRR":-0.14,"LR2":0.22,"LSE":16.27,"LCI90":0.18,"AZIMUTH":330.08},"geometry":{"type":"LineString","coordinates":[[-71.8940462836592,41.04037795273076],[-71.89793842817176,41.04594680271194]]}},{"type":"Feature","properties":{"OBJECTID":3552,"TRANSECTID":3552,"TRANSORDER":3552,"BASELINEID":10,"LRR":-0.1,"LR2":0.12,"LSE":17.12,"LCI90":0.19,"AZIMUTH":330.08},"geometry":{"type":"LineString","coordinates":[[-71.89352091075375,41.0405884266563],[-71.89741302107173,41.046157293097835]]}},{"type":"Feature","properties":{"OBJECTID":3553,"TRANSECTID":3553,"TRANSORDER":3553,"BASELINEID":10,"LRR":-0.05,"LR2":0.03,"LSE":17.68,"LCI90":0.19,"AZIMUTH":330.08},"geometry":{"type":"LineString","coordinates":[[-71.89299553455578,41.04079889808994],[-71.89688761076856,41.046367780994075]]}},{"type":"Feature","properties":{"OBJECTID":3554,"TRANSECTID":3554,"TRANSORDER":3554,"BASELINEID":10,"LRR":-0.08,"LR2":0.07,"LSE":17.38,"LCI90":0.19,"AZIMUTH":330.08},"geometry":{"type":"LineString","coordinates":[[-71.89247015515753,41.041009366999766],[-71.89636219717322,41.04657826636385]]}},{"type":"Feature","properties":{"OBJECTID":3555,"TRANSECTID":3555,"TRANSORDER":3555,"BASELINEID":10,"LRR":-0.13,"LR2":0.21,"LSE":15.27,"LCI90":0.17,"AZIMUTH":330.08},"geometry":{"type":"LineString","coordinates":[[-71.89194477246997,41.04121983334893],[-71.89583678037796,41.046788749175214]]}},{"type":"Feature","properties":{"OBJECTID":3556,"TRANSECTID":3556,"TRANSORDER":3556,"BASELINEID":10,"LRR":-0.21,"LR2":0.44,"LSE":13.89,"LCI90":0.15,"AZIMUTH":330.08},"geometry":{"type":"LineString","coordinates":[[-71.89141938658058,41.04143029720854],[-71.89531136028891,41.04699922949427]]}},{"type":"Feature","properties":{"OBJECTID":3557,"TRANSECTID":3557,"TRANSORDER":3557,"BASELINEID":10,"LRR":-0.26,"LR2":0.62,"LSE":12.26,"LCI90":0.13,"AZIMUTH":330.08},"geometry":{"type":"LineString","coordinates":[[-71.89089399740031,41.04164075854167],[-71.89478593695306,41.04720970728792]]}},{"type":"Feature","properties":{"OBJECTID":3558,"TRANSECTID":3558,"TRANSORDER":3558,"BASELINEID":10,"LRR":-0.2,"LR2":0.6,"LSE":9.56,"LCI90":0.1,"AZIMUTH":330.08},"geometry":{"type":"LineString","coordinates":[[-71.89036860497615,41.04185121731527],[-71.89426051041731,41.047420182522984]]}},{"type":"Feature","properties":{"OBJECTID":3559,"TRANSECTID":3559,"TRANSORDER":3559,"BASELINEID":10,"LRR":-0.28,"LR2":0.74,"LSE":9.87,"LCI90":0.11,"AZIMUTH":330.08},"geometry":{"type":"LineString","coordinates":[[-71.88984320935016,41.042061673599044],[-71.89373508058786,41.04763065526568]]}},{"type":"Feature","properties":{"OBJECTID":3560,"TRANSECTID":3560,"TRANSORDER":3560,"BASELINEID":10,"LRR":-0.41,"LR2":0.82,"LSE":11.66,"LCI90":0.13,"AZIMUTH":330.08},"geometry":{"type":"LineString","coordinates":[[-71.88931781043331,41.0422721273563],[-71.89320964755694,41.04784112548398]]}},{"type":"Feature","properties":{"OBJECTID":3561,"TRANSECTID":3561,"TRANSORDER":3561,"BASELINEID":10,"LRR":-0.44,"LR2":0.81,"LSE":13.09,"LCI90":0.14,"AZIMUTH":330.08},"geometry":{"type":"LineString","coordinates":[[-71.88879240831793,41.042482578554996],[-71.89268421123553,41.04805159314111]]}},{"type":"Feature","properties":{"OBJECTID":3562,"TRANSECTID":3562,"TRANSORDER":3562,"BASELINEID":10,"LRR":-0.44,"LR2":0.82,"LSE":12.66,"LCI90":0.14,"AZIMUTH":330.08},"geometry":{"type":"LineString","coordinates":[[-71.88826700291013,41.04269302726136],[-71.8921587717111,41.0482620583081]]}},{"type":"Feature","properties":{"OBJECTID":3563,"TRANSECTID":3563,"TRANSORDER":3563,"BASELINEID":10,"LRR":-0.4,"LR2":0.78,"LSE":12.68,"LCI90":0.14,"AZIMUTH":330.08},"geometry":{"type":"LineString","coordinates":[[-71.88774159425684,41.04290347344217],[-71.8916333288946,41.04847252094816]]}},{"type":"Feature","properties":{"OBJECTID":3564,"TRANSECTID":3564,"TRANSORDER":3564,"BASELINEID":10,"LRR":-0.4,"LR2":0.75,"LSE":13.81,"LCI90":0.15,"AZIMUTH":330.08},"geometry":{"type":"LineString","coordinates":[[-71.88721618240504,41.04311391706436],[-71.89110788283296,41.04868298102813]]}},{"type":"Feature","properties":{"OBJECTID":3565,"TRANSECTID":3565,"TRANSORDER":3565,"BASELINEID":10,"LRR":-0.34,"LR2":0.67,"LSE":14.33,"LCI90":0.16,"AZIMUTH":330.08},"geometry":{"type":"LineString","coordinates":[[-71.88669076726083,41.043324358194056],[-71.89058243356831,41.04889343861777]]}},{"type":"Feature","properties":{"OBJECTID":3566,"TRANSECTID":3566,"TRANSORDER":3566,"BASELINEID":10,"LRR":-0.27,"LR2":0.55,"LSE":14.68,"LCI90":0.16,"AZIMUTH":330.08},"geometry":{"type":"LineString","coordinates":[[-71.88616534891655,41.04353479679924],[-71.89005698101163,41.049103893680304]]}},{"type":"Feature","properties":{"OBJECTID":3567,"TRANSECTID":3567,"TRANSORDER":3567,"BASELINEID":10,"LRR":-0.35,"LR2":0.73,"LSE":12.96,"LCI90":0.14,"AZIMUTH":330.08},"geometry":{"type":"LineString","coordinates":[[-71.88563992728314,41.043745232843186],[-71.88953152525359,41.04931434621818]]}},{"type":"Feature","properties":{"OBJECTID":3568,"TRANSECTID":3568,"TRANSORDER":3568,"BASELINEID":10,"LRR":-0.38,"LR2":0.74,"LSE":13.68,"LCI90":0.15,"AZIMUTH":330.08},"geometry":{"type":"LineString","coordinates":[[-71.88511450244799,41.04395566639688],[-71.88900606620517,41.049524796194476]]}},{"type":"Feature","properties":{"OBJECTID":3569,"TRANSECTID":3569,"TRANSORDER":3569,"BASELINEID":10,"LRR":-0.37,"LR2":0.66,"LSE":15.78,"LCI90":0.17,"AZIMUTH":330.08},"geometry":{"type":"LineString","coordinates":[[-71.88458907432214,41.04416609742359],[-71.8884806039538,41.0497352436803]]}},{"type":"Feature","properties":{"OBJECTID":3570,"TRANSECTID":3570,"TRANSORDER":3570,"BASELINEID":10,"LRR":-0.35,"LR2":0.68,"LSE":14.52,"LCI90":0.16,"AZIMUTH":330.08},"geometry":{"type":"LineString","coordinates":[[-71.88406364295254,41.04437652589006],[-71.8879551384104,41.049945688638765]]}},{"type":"Feature","properties":{"OBJECTID":3571,"TRANSECTID":3571,"TRANSORDER":3571,"BASELINEID":10,"LRR":-0.31,"LR2":0.72,"LSE":11.77,"LCI90":0.13,"AZIMUTH":330.08},"geometry":{"type":"LineString","coordinates":[[-71.88353820838124,41.04458695186614],[-71.88742966962202,41.050156131036815]]}},{"type":"Feature","properties":{"OBJECTID":3572,"TRANSECTID":3572,"TRANSORDER":3572,"BASELINEID":10,"LRR":-0.28,"LR2":0.71,"LSE":10.66,"LCI90":0.12,"AZIMUTH":330.08},"geometry":{"type":"LineString","coordinates":[[-71.88301277051931,41.044797375315014],[-71.8869041976307,41.050366570944206]]}},{"type":"Feature","properties":{"OBJECTID":3573,"TRANSECTID":3573,"TRANSORDER":3573,"BASELINEID":10,"LRR":-0.21,"LR2":0.59,"LSE":10.56,"LCI90":0.12,"AZIMUTH":330.08},"geometry":{"type":"LineString","coordinates":[[-71.88248732945733,41.04500779623911],[-71.88637872234744,41.050577008324126]]}},{"type":"Feature","properties":{"OBJECTID":3574,"TRANSECTID":3574,"TRANSORDER":3574,"BASELINEID":10,"LRR":-0.23,"LR2":0.52,"LSE":13.1,"LCI90":0.14,"AZIMUTH":330.08},"geometry":{"type":"LineString","coordinates":[[-71.8819618851063,41.045218214601604],[-71.88585324386453,41.050787443144635]]}},{"type":"Feature","properties":{"OBJECTID":3575,"TRANSECTID":3575,"TRANSORDER":3575,"BASELINEID":10,"LRR":-0.34,"LR2":0.48,"LSE":21.3,"LCI90":0.23,"AZIMUTH":330.08},"geometry":{"type":"LineString","coordinates":[[-71.88143643755367,41.045428630473474],[-71.88532776208807,41.0509978754719]]}},{"type":"Feature","properties":{"OBJECTID":3576,"TRANSECTID":3576,"TRANSORDER":3576,"BASELINEID":10,"LRR":-0.42,"LR2":0.49,"LSE":25.96,"LCI90":0.28,"AZIMUTH":330.08},"geometry":{"type":"LineString","coordinates":[[-71.88091098671043,41.04563904381789],[-71.88480227706503,41.05120830527281]]}},{"type":"Feature","properties":{"OBJECTID":3577,"TRANSECTID":3577,"TRANSORDER":3577,"BASELINEID":10,"LRR":-0.34,"LR2":0.39,"LSE":25.45,"LCI90":0.28,"AZIMUTH":330.08},"geometry":{"type":"LineString","coordinates":[[-71.88038553262349,41.04584945460182],[-71.88427678884239,41.051418732514115]]}},{"type":"Feature","properties":{"OBJECTID":3578,"TRANSECTID":3578,"TRANSORDER":3578,"BASELINEID":10,"LRR":-0.34,"LR2":0.58,"LSE":17.73,"LCI90":0.19,"AZIMUTH":330.08},"geometry":{"type":"LineString","coordinates":[[-71.87986007533499,41.04605986289502],[-71.88375129732621,41.05162915726203]]}},{"type":"Feature","properties":{"OBJECTID":3579,"TRANSECTID":3579,"TRANSORDER":3579,"BASELINEID":10,"LRR":-0.36,"LR2":0.71,"LSE":14.0,"LCI90":0.15,"AZIMUTH":330.08},"geometry":{"type":"LineString","coordinates":[[-71.87933461475588,41.0462702686606],[-71.88322580260886,41.0518395794846]]}},{"type":"Feature","properties":{"OBJECTID":3580,"TRANSECTID":3580,"TRANSORDER":3580,"BASELINEID":10,"LRR":-0.27,"LR2":0.59,"LSE":13.72,"LCI90":0.15,"AZIMUTH":330.08},"geometry":{"type":"LineString","coordinates":[[-71.87880915097847,41.046480671866725],[-71.88270030460124,41.05204999914504]]}},{"type":"Feature","properties":{"OBJECTID":3581,"TRANSECTID":3581,"TRANSORDER":3581,"BASELINEID":10,"LRR":-0.18,"LR2":0.36,"LSE":14.87,"LCI90":0.16,"AZIMUTH":330.08},"geometry":{"type":"LineString","coordinates":[[-71.87828368390888,41.04669107257947],[-71.88217480339084,41.052260416314375]]}},{"type":"Feature","properties":{"OBJECTID":3582,"TRANSECTID":3582,"TRANSORDER":3582,"BASELINEID":10,"LRR":-0.17,"LR2":0.31,"LSE":15.36,"LCI90":0.17,"AZIMUTH":330.08},"geometry":{"type":"LineString","coordinates":[[-71.87775821359403,41.04690147076575],[-71.8816492988886,41.05247083095577]]}},{"type":"Feature","properties":{"OBJECTID":3583,"TRANSECTID":3583,"TRANSORDER":3583,"BASELINEID":10,"LRR":-0.16,"LR2":0.24,"LSE":16.99,"LCI90":0.19,"AZIMUTH":330.08},"geometry":{"type":"LineString","coordinates":[[-71.87723274008094,41.04711186639241],[-71.88112379114148,41.05268124303605]]}},{"type":"Feature","properties":{"OBJECTID":3584,"TRANSECTID":3584,"TRANSORDER":3584,"BASELINEID":10,"LRR":-0.18,"LR2":0.32,"LSE":15.67,"LCI90":0.17,"AZIMUTH":330.08},"geometry":{"type":"LineString","coordinates":[[-71.8767072632757,41.04732225952553],[-71.8805982801916,41.052891652625085]]}},{"type":"Feature","properties":{"OBJECTID":3585,"TRANSECTID":3585,"TRANSORDER":3585,"BASELINEID":10,"LRR":-0.18,"LR2":0.39,"LSE":13.47,"LCI90":0.15,"AZIMUTH":330.08},"geometry":{"type":"LineString","coordinates":[[-71.87618178327057,41.04753265013323],[-71.88007276594995,41.05310205968608]]}},{"type":"Feature","properties":{"OBJECTID":3586,"TRANSECTID":3586,"TRANSORDER":3586,"BASELINEID":10,"LRR":-0.14,"LR2":0.32,"LSE":12.14,"LCI90":0.13,"AZIMUTH":330.08},"geometry":{"type":"LineString","coordinates":[[-71.87565629997658,41.047743038178695],[-71.87954724850876,41.053312464187]]}},{"type":"Feature","properties":{"OBJECTID":3587,"TRANSECTID":3587,"TRANSORDER":3587,"BASELINEID":10,"LRR":-0.11,"LR2":0.27,"LSE":10.36,"LCI90":0.11,"AZIMUTH":330.08},"geometry":{"type":"LineString","coordinates":[[-71.87513081348114,41.04795342373299],[-71.8790217277742,41.05352286619406]]}},{"type":"Feature","properties":{"OBJECTID":3588,"TRANSECTID":3588,"TRANSORDER":3588,"BASELINEID":10,"LRR":-0.08,"LR2":0.16,"LSE":11.38,"LCI90":0.12,"AZIMUTH":330.08},"geometry":{"type":"LineString","coordinates":[[-71.87460532369518,41.0481638067592],[-71.87849620383855,41.05373326567531]]}},{"type":"Feature","properties":{"OBJECTID":3589,"TRANSECTID":3589,"TRANSORDER":3589,"BASELINEID":10,"LRR":-0.11,"LR2":0.28,"LSE":10.84,"LCI90":0.12,"AZIMUTH":330.08},"geometry":{"type":"LineString","coordinates":[[-71.87407983066574,41.048374187224255],[-71.87797067661276,41.053943662593966]]}},{"type":"Feature","properties":{"OBJECTID":3590,"TRANSECTID":3590,"TRANSORDER":3590,"BASELINEID":10,"LRR":-0.06,"LR2":0.12,"LSE":10.29,"LCI90":0.11,"AZIMUTH":330.08},"geometry":{"type":"LineString","coordinates":[[-71.87355433443486,41.048584565197935],[-71.87744514613897,41.05415405701985]]}},{"type":"Feature","properties":{"OBJECTID":3591,"TRANSECTID":3591,"TRANSORDER":3591,"BASELINEID":10,"LRR":-0.03,"LR2":0.02,"LSE":12.29,"LCI90":0.13,"AZIMUTH":330.08},"geometry":{"type":"LineString","coordinates":[[-71.87302883491353,41.04879494064343],[-71.87691961246414,41.05436444891975]]}},{"type":"Feature","properties":{"OBJECTID":3592,"TRANSECTID":3592,"TRANSORDER":3592,"BASELINEID":10,"LRR":-0.07,"LR2":0.08,"LSE":14.11,"LCI90":0.15,"AZIMUTH":330.08},"geometry":{"type":"LineString","coordinates":[[-71.87250333219406,41.04900531352888],[-71.87667202857402,41.05447241058711]]}},{"type":"Feature","properties":{"OBJECTID":3594,"TRANSECTID":3594,"TRANSORDER":3594,"BASELINEID":10,"LRR":-0.19,"LR2":0.36,"LSE":15.1,"LCI90":0.16,"AZIMUTH":318.14},"geometry":{"type":"LineString","coordinates":[[-71.87145231697127,41.04942605178585],[-71.87683730879431,41.05420714471395]]}},{"type":"Feature","properties":{"OBJECTID":3596,"TRANSECTID":3596,"TRANSORDER":3596,"BASELINEID":10,"LRR":-0.24,"LR2":0.45,"LSE":15.89,"LCI90":0.17,"AZIMUTH":302.91},"geometry":{"type":"LineString","coordinates":[[-71.87075993101188,41.050154201570415],[-71.8773239504195,41.05414327356277]]}},{"type":"Feature","properties":{"OBJECTID":3597,"TRANSECTID":3597,"TRANSORDER":3597,"BASELINEID":10,"LRR":-0.29,"LR2":0.53,"LSE":16.38,"LCI90":0.18,"AZIMUTH":302.91},"geometry":{"type":"LineString","coordinates":[[-71.87041921891927,41.050522977732875],[-71.87723956396859,41.05413377660874]]}},{"type":"Feature","properties":{"OBJECTID":3598,"TRANSECTID":3598,"TRANSORDER":3598,"BASELINEID":10,"LRR":-0.3,"LR2":0.52,"LSE":17.49,"LCI90":0.19,"AZIMUTH":302.91},"geometry":{"type":"LineString","coordinates":[[-71.87007850294772,41.050891752763825],[-71.87689886496227,41.054502572338585]]}},{"type":"Feature","properties":{"OBJECTID":3599,"TRANSECTID":3599,"TRANSORDER":3599,"BASELINEID":10,"LRR":-0.24,"LR2":0.35,"LSE":19.78,"LCI90":0.22,"AZIMUTH":302.91},"geometry":{"type":"LineString","coordinates":[[-71.86973778309877,41.05126052662885],[-71.87655816207979,41.05487136686865]]}},{"type":"Feature","properties":{"OBJECTID":3600,"TRANSECTID":3600,"TRANSORDER":3600,"BASELINEID":10,"LRR":-0.24,"LR2":0.38,"LSE":18.72,"LCI90":0.2,"AZIMUTH":302.91},"geometry":{"type":"LineString","coordinates":[[-71.86939705937395,41.05162929929359],[-71.87621745531784,41.05524016026744]]}},{"type":"Feature","properties":{"OBJECTID":3601,"TRANSECTID":3601,"TRANSORDER":3601,"BASELINEID":10,"LRR":-0.19,"LR2":0.25,"LSE":20.01,"LCI90":0.22,"AZIMUTH":302.91},"geometry":{"type":"LineString","coordinates":[[-71.86905633176993,41.051998070826684],[-71.87587674472326,41.05560895250187]]}},{"type":"Feature","properties":{"OBJECTID":3602,"TRANSECTID":3602,"TRANSORDER":3602,"BASELINEID":10,"LRR":-0.27,"LR2":0.46,"LSE":17.85,"LCI90":0.19,"AZIMUTH":302.91},"geometry":{"type":"LineString","coordinates":[[-71.86871560028824,41.052366841193766],[-71.87553603020699,41.05597774353509]]}},{"type":"Feature","properties":{"OBJECTID":3603,"TRANSECTID":3603,"TRANSORDER":3603,"BASELINEID":10,"LRR":-0.3,"LR2":0.59,"LSE":14.87,"LCI90":0.16,"AZIMUTH":302.91},"geometry":{"type":"LineString","coordinates":[[-71.86837486493047,41.05273561036044],[-71.87519531181096,41.056346533436965]]}},{"type":"Feature","properties":{"OBJECTID":3604,"TRANSECTID":3604,"TRANSORDER":3604,"BASELINEID":10,"LRR":-0.2,"LR2":0.4,"LSE":14.82,"LCI90":0.16,"AZIMUTH":302.91},"geometry":{"type":"LineString","coordinates":[[-71.86803412569319,41.05310437839533],[-71.8748545895367,41.05671532217313]]}},{"type":"Feature","properties":{"OBJECTID":3605,"TRANSECTID":3605,"TRANSORDER":3605,"BASELINEID":10,"LRR":-0.1,"LR2":0.12,"LSE":16.47,"LCI90":0.18,"AZIMUTH":302.91},"geometry":{"type":"LineString","coordinates":[[-71.86769338257798,41.0534731452641],[-71.87451386338579,41.05708410970922]]}},{"type":"Feature","properties":{"OBJECTID":3606,"TRANSECTID":3606,"TRANSORDER":3606,"BASELINEID":10,"LRR":-0.08,"LR2":0.07,"LSE":16.5,"LCI90":0.18,"AZIMUTH":302.91},"geometry":{"type":"LineString","coordinates":[[-71.8673526356317,41.053841910933606],[-71.87417313335487,41.05745289611381]]}},{"type":"Feature","properties":{"OBJECTID":3607,"TRANSECTID":3607,"TRANSORDER":3607,"BASELINEID":10,"LRR":-0.02,"LR2":0.01,"LSE":14.7,"LCI90":0.16,"AZIMUTH":302.91},"geometry":{"type":"LineString","coordinates":[[-71.86701188476042,41.05421067546997],[-71.8738323994455,41.05782168135258]]}},{"type":"Feature","properties":{"OBJECTID":3608,"TRANSECTID":3608,"TRANSORDER":3608,"BASELINEID":10,"LRR":0.06,"LR2":0.06,"LSE":15.4,"LCI90":0.17,"AZIMUTH":302.91},"geometry":{"type":"LineString","coordinates":[[-71.8666711300109,41.05457943884009],[-71.87349166165755,41.058190465425476]]}},{"type":"Feature","properties":{"OBJECTID":3609,"TRANSECTID":3609,"TRANSORDER":3609,"BASELINEID":10,"LRR":0.09,"LR2":0.1,"LSE":16.32,"LCI90":0.18,"AZIMUTH":302.91},"geometry":{"type":"LineString","coordinates":[[-71.86633037138472,41.05494820100956],[-71.87315091999258,41.05855924829816]]}},{"type":"Feature","properties":{"OBJECTID":3610,"TRANSECTID":3610,"TRANSORDER":3610,"BASELINEID":10,"LRR":0.05,"LR2":0.04,"LSE":16.42,"LCI90":0.18,"AZIMUTH":302.91},"geometry":{"type":"LineString","coordinates":[[-71.86598960887856,41.05531696204705],[-71.87281017444724,41.058928030039205]]}},{"type":"Feature","properties":{"OBJECTID":3611,"TRANSECTID":3611,"TRANSORDER":3611,"BASELINEID":10,"LRR":-0.05,"LR2":0.04,"LSE":14.67,"LCI90":0.16,"AZIMUTH":302.91},"geometry":{"type":"LineString","coordinates":[[-71.86564884249394,41.05568572191815],[-71.8724694250231,41.05929681061422]]}},{"type":"Feature","properties":{"OBJECTID":3612,"TRANSECTID":3612,"TRANSORDER":3612,"BASELINEID":10,"LRR":-0.18,"LR2":0.33,"LSE":15.24,"LCI90":0.17,"AZIMUTH":302.91},"geometry":{"type":"LineString","coordinates":[[-71.86530807223244,41.05605448058851],[-71.87212867176702,41.05966558999018]]}},{"type":"Feature","properties":{"OBJECTID":3613,"TRANSECTID":3613,"TRANSORDER":3613,"BASELINEID":10,"LRR":-0.26,"LR2":0.7,"LSE":10.26,"LCI90":0.11,"AZIMUTH":302.91},"geometry":{"type":"LineString","coordinates":[[-71.86496729809063,41.05642323812675],[-71.87178791458493,41.06003436823315]]}},{"type":"Feature","properties":{"OBJECTID":3614,"TRANSECTID":3614,"TRANSORDER":3614,"BASELINEID":10,"LRR":-0.22,"LR2":0.61,"LSE":10.76,"LCI90":0.12,"AZIMUTH":302.91},"geometry":{"type":"LineString","coordinates":[[-71.86462652007012,41.056791994498504],[-71.8714471535238,41.060403145310026]]}},{"type":"Feature","properties":{"OBJECTID":3615,"TRANSECTID":3615,"TRANSORDER":3615,"BASELINEID":10,"LRR":-0.27,"LR2":0.67,"LSE":11.41,"LCI90":0.12,"AZIMUTH":302.91},"geometry":{"type":"LineString","coordinates":[[-71.86428573817241,41.05716074966942],[-71.87110638858509,41.06077192118639]]}},{"type":"Feature","properties":{"OBJECTID":3616,"TRANSECTID":3616,"TRANSORDER":3616,"BASELINEID":10,"LRR":-0.29,"LR2":0.81,"LSE":8.41,"LCI90":0.09,"AZIMUTH":302.91},"geometry":{"type":"LineString","coordinates":[[-71.86394495239419,41.05752950370809],[-71.87076561976554,41.06114069593094]]}},{"type":"Feature","properties":{"OBJECTID":3617,"TRANSECTID":3617,"TRANSORDER":3617,"BASELINEID":10,"LRR":-0.25,"LR2":0.75,"LSE":8.54,"LCI90":0.09,"AZIMUTH":302.91},"geometry":{"type":"LineString","coordinates":[[-71.86360416273698,41.05789825658012],[-71.87042484706662,41.06150946950925]]}},{"type":"Feature","properties":{"OBJECTID":3618,"TRANSECTID":3618,"TRANSORDER":3618,"BASELINEID":10,"LRR":-0.23,"LR2":0.62,"LSE":10.96,"LCI90":0.12,"AZIMUTH":302.91},"geometry":{"type":"LineString","coordinates":[[-71.86326336924604,41.05826700828675],[-71.87008407048985,41.06187824188694]]}},{"type":"Feature","properties":{"OBJECTID":3619,"TRANSECTID":3619,"TRANSORDER":3619,"BASELINEID":10,"LRR":-0.21,"LR2":0.6,"LSE":10.17,"LCI90":0.11,"AZIMUTH":302.91},"geometry":{"type":"LineString","coordinates":[[-71.86292257183224,41.05863575879118],[-71.86974329003195,41.06224701313271]]}},{"type":"Feature","properties":{"OBJECTID":3620,"TRANSECTID":3620,"TRANSORDER":3620,"BASELINEID":10,"LRR":-0.19,"LR2":0.58,"LSE":9.73,"LCI90":0.11,"AZIMUTH":302.91},"geometry":{"type":"LineString","coordinates":[[-71.86258177053756,41.059004508163206],[-71.86940250569445,41.062615783212124]]}},{"type":"Feature","properties":{"OBJECTID":3621,"TRANSECTID":3621,"TRANSORDER":3621,"BASELINEID":10,"LRR":-0.07,"LR2":0.1,"LSE":12.4,"LCI90":0.14,"AZIMUTH":302.91},"geometry":{"type":"LineString","coordinates":[[-71.86224096536355,41.05937325636841],[-71.86906171747889,41.062984552090875]]}},{"type":"Feature","properties":{"OBJECTID":3622,"TRANSECTID":3622,"TRANSORDER":3622,"BASELINEID":10,"LRR":-0.12,"LR2":0.45,"LSE":8.21,"LCI90":0.09,"AZIMUTH":302.91},"geometry":{"type":"LineString","coordinates":[[-71.86190015631173,41.059742003372556],[-71.86872092538187,41.06335331983752]]}},{"type":"Feature","properties":{"OBJECTID":3623,"TRANSECTID":3623,"TRANSORDER":3623,"BASELINEID":10,"LRR":-0.13,"LR2":0.47,"LSE":8.37,"LCI90":0.09,"AZIMUTH":302.91},"geometry":{"type":"LineString","coordinates":[[-71.86155934337877,41.06011074924416],[-71.8683801294503,41.06372208641889]]}},{"type":"Feature","properties":{"OBJECTID":3624,"TRANSECTID":3624,"TRANSORDER":3624,"BASELINEID":10,"LRR":-0.12,"LR2":0.31,"LSE":11.08,"LCI90":0.12,"AZIMUTH":302.91},"geometry":{"type":"LineString","coordinates":[[-71.8612185265662,41.06047949394889],[-71.86803932959508,41.06409085179828]]}},{"type":"Feature","properties":{"OBJECTID":3625,"TRANSECTID":3625,"TRANSORDER":3625,"BASELINEID":10,"LRR":-0.13,"LR2":0.38,"LSE":10.24,"LCI90":0.11,"AZIMUTH":302.91},"geometry":{"type":"LineString","coordinates":[[-71.8608777058756,41.06084823745239],[-71.86769852585819,41.06445961604543]]}},{"type":"Feature","properties":{"OBJECTID":3626,"TRANSECTID":3626,"TRANSORDER":3626,"BASELINEID":10,"LRR":-0.1,"LR2":0.27,"LSE":9.93,"LCI90":0.11,"AZIMUTH":302.91},"geometry":{"type":"LineString","coordinates":[[-71.86053688130359,41.06121697982325],[-71.86735771824114,41.064828379126034]]}},{"type":"Feature","properties":{"OBJECTID":3627,"TRANSECTID":3627,"TRANSORDER":3627,"BASELINEID":10,"LRR":-0.04,"LR2":0.08,"LSE":8.79,"LCI90":0.1,"AZIMUTH":302.91},"geometry":{"type":"LineString","coordinates":[[-71.86019605285169,41.06158572102713],[-71.86701690674548,41.065197141005676]]}},{"type":"Feature","properties":{"OBJECTID":3628,"TRANSECTID":3628,"TRANSORDER":3628,"BASELINEID":10,"LRR":-0.02,"LR2":0.02,"LSE":7.83,"LCI90":0.09,"AZIMUTH":302.91},"geometry":{"type":"LineString","coordinates":[[-71.85985522052148,41.06195446102968],[-71.86667609136789,41.065565901753004]]}},{"type":"Feature","properties":{"OBJECTID":3629,"TRANSECTID":3629,"TRANSORDER":3629,"BASELINEID":10,"LRR":0.02,"LR2":0.02,"LSE":9.87,"LCI90":0.11,"AZIMUTH":302.91},"geometry":{"type":"LineString","coordinates":[[-71.85951438435491,41.06232319990065],[-71.86633527210988,41.065934661333664]]}},{"type":"Feature","properties":{"OBJECTID":3630,"TRANSECTID":3630,"TRANSORDER":3630,"BASELINEID":10,"LRR":0.05,"LR2":0.1,"LSE":8.96,"LCI90":0.1,"AZIMUTH":302.91},"geometry":{"type":"LineString","coordinates":[[-71.85917354426292,41.062691937603304],[-71.86599444897301,41.066303419713286]]}},{"type":"Feature","properties":{"OBJECTID":3631,"TRANSECTID":3631,"TRANSORDER":3631,"BASELINEID":10,"LRR":0.01,"LR2":0.0,"LSE":7.64,"LCI90":0.08,"AZIMUTH":302.91},"geometry":{"type":"LineString","coordinates":[[-71.85883270029233,41.063060674104534],[-71.86565362195394,41.066672176960424]]}},{"type":"Feature","properties":{"OBJECTID":3632,"TRANSECTID":3632,"TRANSORDER":3632,"BASELINEID":10,"LRR":0.0,"LR2":0.0,"LSE":8.25,"LCI90":0.09,"AZIMUTH":302.91},"geometry":{"type":"LineString","coordinates":[[-71.85849185243978,41.06342940947288],[-71.86531279105418,41.067040933040786]]}},{"type":"Feature","properties":{"OBJECTID":3633,"TRANSECTID":3633,"TRANSORDER":3633,"BASELINEID":10,"LRR":-0.07,"LR2":0.21,"LSE":8.01,"LCI90":0.09,"AZIMUTH":302.91},"geometry":{"type":"LineString","coordinates":[[-71.85815100070685,41.06379814367394],[-71.86497195627528,41.06740968792002]]}},{"type":"Feature","properties":{"OBJECTID":3634,"TRANSECTID":3634,"TRANSORDER":3634,"BASELINEID":10,"LRR":-0.2,"LR2":0.58,"LSE":10.42,"LCI90":0.11,"AZIMUTH":302.91},"geometry":{"type":"LineString","coordinates":[[-71.85781014509509,41.06416687667347],[-71.86463111761392,41.067778441666675]]}},{"type":"Feature","properties":{"OBJECTID":3635,"TRANSECTID":3635,"TRANSORDER":3635,"BASELINEID":10,"LRR":-0.27,"LR2":0.72,"LSE":10.36,"LCI90":0.11,"AZIMUTH":302.91},"geometry":{"type":"LineString","coordinates":[[-71.85746928560113,41.06453560854003],[-71.86429027511697,41.0681471942476]]}},{"type":"Feature","properties":{"OBJECTID":3636,"TRANSECTID":3636,"TRANSORDER":3636,"BASELINEID":10,"LRR":-0.39,"LR2":0.83,"LSE":10.64,"LCI90":0.12,"AZIMUTH":302.91},"geometry":{"type":"LineString","coordinates":[[-71.85712842222648,41.06490433923923],[-71.86394942869526,41.068515945626075]]}},{"type":"Feature","properties":{"OBJECTID":3637,"TRANSECTID":3637,"TRANSORDER":3637,"BASELINEID":10,"LRR":-0.51,"LR2":0.87,"LSE":11.96,"LCI90":0.13,"AZIMUTH":302.91},"geometry":{"type":"LineString","coordinates":[[-71.85678755497274,41.065273068736715],[-71.86360857839082,41.06888469587187]]}},{"type":"Feature","properties":{"OBJECTID":3638,"TRANSECTID":3638,"TRANSORDER":3638,"BASELINEID":10,"LRR":-0.53,"LR2":0.86,"LSE":12.86,"LCI90":0.14,"AZIMUTH":302.91},"geometry":{"type":"LineString","coordinates":[[-71.85644668383652,41.065641797101115],[-71.86326772420519,41.06925344495059]]}},{"type":"Feature","properties":{"OBJECTID":3639,"TRANSECTID":3639,"TRANSORDER":3639,"BASELINEID":10,"LRR":-0.5,"LR2":0.85,"LSE":12.59,"LCI90":0.14,"AZIMUTH":302.91},"geometry":{"type":"LineString","coordinates":[[-71.85610580881938,41.066010524298086],[-71.86292686613828,41.069622192862276]]}},{"type":"Feature","properties":{"OBJECTID":3640,"TRANSECTID":3640,"TRANSORDER":3640,"BASELINEID":10,"LRR":-0.43,"LR2":0.85,"LSE":10.63,"LCI90":0.12,"AZIMUTH":302.91},"geometry":{"type":"LineString","coordinates":[[-71.85576492996822,41.06637925029449],[-71.86258600419161,41.06999093957251]]}},{"type":"Feature","properties":{"OBJECTID":3641,"TRANSECTID":3641,"TRANSORDER":3641,"BASELINEID":10,"LRR":-0.4,"LR2":0.86,"LSE":9.8,"LCI90":0.11,"AZIMUTH":302.91},"geometry":{"type":"LineString","coordinates":[[-71.85542404718896,41.06674797515637],[-71.86224513836184,41.07035968514993]]}},{"type":"Feature","properties":{"OBJECTID":3642,"TRANSECTID":3642,"TRANSORDER":3642,"BASELINEID":10,"LRR":-0.4,"LR2":0.85,"LSE":10.2,"LCI90":0.11,"AZIMUTH":302.91},"geometry":{"type":"LineString","coordinates":[[-71.85508316052854,41.06711669885071],[-71.86190426865052,41.07072842956018]]}},{"type":"Feature","properties":{"OBJECTID":3643,"TRANSECTID":3643,"TRANSORDER":3643,"BASELINEID":10,"LRR":-0.31,"LR2":0.75,"LSE":10.6,"LCI90":0.12,"AZIMUTH":302.91},"geometry":{"type":"LineString","coordinates":[[-71.85474226998848,41.06748542134314],[-71.86156339505919,41.07109717276885]]}},{"type":"Feature","properties":{"OBJECTID":3644,"TRANSECTID":3644,"TRANSORDER":3644,"BASELINEID":10,"LRR":-0.19,"LR2":0.42,"LSE":13.04,"LCI90":0.14,"AZIMUTH":302.91},"geometry":{"type":"LineString","coordinates":[[-71.85440137556542,41.06785414270224],[-71.86122251758452,41.07146591484457]]}},{"type":"Feature","properties":{"OBJECTID":3645,"TRANSECTID":3645,"TRANSORDER":3645,"BASELINEID":10,"LRR":-0.12,"LR2":0.26,"LSE":12.85,"LCI90":0.14,"AZIMUTH":302.91},"geometry":{"type":"LineString","coordinates":[[-71.85406047726092,41.068222862893606],[-71.86088163622802,41.07183465575302]]}},{"type":"Feature","properties":{"OBJECTID":3649,"TRANSECTID":3649,"TRANSORDER":3649,"BASELINEID":10,"LRR":-0.26,"LR2":0.14,"LSE":38.82,"LCI90":0.42,"AZIMUTH":302.91},"geometry":{"type":"LineString","coordinates":[[-71.85269684522825,41.069697731947244],[-71.85951807203068,41.07330960764555]]}},{"type":"Feature","properties":{"OBJECTID":3650,"TRANSECTID":3650,"TRANSORDER":3650,"BASELINEID":10,"LRR":-0.25,"LR2":0.08,"LSE":49.42,"LCI90":0.54,"AZIMUTH":302.91},"geometry":{"type":"LineString","coordinates":[[-71.8523559275168,41.07006644626527],[-71.85917717126377,41.07367834271688]]}}]}